{"type":"FeatureCollection","source":"Fulton County VotingDistrictsMapViewerAGOL FeatureServer/1, last edited February 13 2024","features":[{"type":"Feature","properties":{"precinct_id":"SS11C"},"geometry":{"type":"Polygon","coordinates":[[[-84.3746442080676,33.9116564688992],[-84.3699764191181,33.9107529306387],[-84.3701258210714,33.9105865148685],[-84.3702133334933,33.9105782619037],[-84.3702522175457,33.9105700883583],[-84.3702618847245,33.910545745431],[-84.3703007880425,33.9105456811219],[-84.3703202402422,33.9105456489619],[-84.3703688492868,33.9105374593003],[-84.3704465594219,33.910496785246],[-84.3704659719295,33.9104805354632],[-84.3704950526117,33.9104399427299],[-84.3705338979595,33.9104155505923],[-84.3705533115135,33.9103993007939],[-84.3705435468164,33.9103830992909],[-84.370572685357,33.9103668324908],[-84.370611588593,33.9103667680838],[-84.3706602361459,33.9103747968108],[-84.3706893746635,33.9103585308847],[-84.3707185142493,33.9103422640484],[-84.3707865548804,33.9103259336482],[-84.3708156751049,33.9103015584388],[-84.3708448135658,33.9102852915744],[-84.3708544805442,33.9102609486002],[-84.3708640712474,33.9102041695181],[-84.3708639745604,33.9101636250624],[-84.3708833493144,33.910131156708],[-84.3709124877046,33.9101148898274],[-84.3709513510531,33.9100986077132],[-84.3709999802149,33.9100985270531],[-84.3710680603923,33.9100984140979],[-84.3714471499831,33.9100085850253],[-84.3715151912896,33.9099922542214],[-84.3715540749497,33.9099840802657],[-84.3715832131638,33.9099678141283],[-84.3716318228386,33.9099596239674],[-84.3718165915375,33.9099512070898],[-84.3719138291715,33.9099429367199],[-84.3719721443049,33.9099266209682],[-84.372049892021,33.9099021644065],[-84.3721276007791,33.9098614901942],[-84.3722054057029,33.9098613603893],[-84.3722637986047,33.9098774806043],[-84.3723221926098,33.9098936007896],[-84.3724877830067,33.9099987421935],[-84.3725558825946,33.9100067367658],[-84.3726337266597,33.9100228251921],[-84.3727116108571,33.9100551302661],[-84.3728672221316,33.9100548698663],[-84.3730619319514,33.9101356347943],[-84.3731008546242,33.9101436779506],[-84.3731688761611,33.9101192369836],[-84.3732662116738,33.9101515099962],[-84.3733829591383,33.9101675317887],[-84.373606769499,33.9102158107803],[-84.3736943596145,33.9102399905425],[-84.3737624987291,33.9102642029468],[-84.3737819497792,33.9102641702421],[-84.373918247762,33.9103207041654],[-84.3739377195334,33.9103287797826],[-84.373976680562,33.9103530420648],[-84.3740253098591,33.9103529602099],[-84.3740448002061,33.9103691450619],[-84.374083723078,33.9103771888082],[-84.3742103346623,33.9104499563812],[-84.3742492969022,33.9104742176727],[-84.3743174363588,33.9104984297678],[-84.3743758104191,33.9105064406289],[-84.3743952822778,33.9105145170748],[-84.374570286408,33.910489893967],[-84.374667465282,33.9104572945758],[-84.3746868780552,33.9104410432273],[-84.3747258010191,33.9104490867703],[-84.3748618228026,33.9103920937606],[-84.374910412678,33.9103757939588],[-84.3749102746313,33.9103190310154],[-84.3750462379652,33.9102377109531],[-84.3750753953325,33.9102295523404],[-84.3751433571396,33.9101807834381],[-84.375211338617,33.9101401228462],[-84.3752695544751,33.9100832610908],[-84.3753083192616,33.9100264322563],[-84.3753665942716,33.9099938982039],[-84.3754734785306,33.9099531715466],[-84.3755998532286,33.9099286303048],[-84.3757262476521,33.9099121981832],[-84.3758624472903,33.9099281846094],[-84.3759110752589,33.9099281020127],[-84.3760666080314,33.9098954014736],[-84.3761638253336,33.9098790185008],[-84.376261062445,33.9098707437992],[-84.3763582201061,33.9098300329249],[-84.3764747491406,33.9097568536499],[-84.3766300030168,33.9096106265133],[-84.3767174342236,33.9095699328355],[-84.3767660619861,33.909569849902],[-84.3768536135933,33.90957780982],[-84.3769703210977,33.909577610617],[-84.3771552090829,33.909617839427],[-84.377194110881,33.9096177729442],[-84.3775640061547,33.909746884206],[-84.3783221486192,33.9095590766156],[-84.3784387558158,33.9095183315808],[-84.3785165614778,33.9095181977888],[-84.3786040518943,33.909501828718],[-84.3788046836459,33.9094959067518],[-84.3788492378501,33.9101360684362],[-84.3788568881406,33.910230523798],[-84.3789205998026,33.9110009355436],[-84.3789365646512,33.9111252629653],[-84.3790385101761,33.9116946483427],[-84.3790273434341,33.9118437560894],[-84.3790643109452,33.9121298469621],[-84.3790870177009,33.9123142790377],[-84.3791340813112,33.9126838282583],[-84.3792021618597,33.9132206362896],[-84.3792227555824,33.9133273296366],[-84.3792177107319,33.9133277882568],[-84.3792160597483,33.9133279380718],[-84.3783302097594,33.9134084690611],[-84.3761302084388,33.9139084693583],[-84.3746442080676,33.9116564688992]]]}},{"type":"Feature","properties":{"precinct_id":"SS11A"},"geometry":{"type":"Polygon","coordinates":[[[-84.3653304202525,33.9099884417056],[-84.3653231402989,33.9102769714195],[-84.3652353451976,33.910276251924],[-84.3650226951307,33.9102546091359],[-84.3648092301768,33.9102364025121],[-84.3645957705828,33.9102209436862],[-84.3643814960545,33.9102089210191],[-84.3641672287155,33.9101999896662],[-84.3639529666697,33.9101938061088],[-84.3637387136405,33.910191057385],[-84.3635236426267,33.9101914012947],[-84.3633094038136,33.9101948351991],[-84.3630951712856,33.9102010168976],[-84.3628809455151,33.9102106334337],[-84.3626667278528,33.9102233412833],[-84.362453340136,33.91023913914],[-84.3622399604814,33.9102580283133],[-84.3620274118083,33.910280007498],[-84.3617931026077,33.9103088921331],[-84.3617860877114,33.9101234004087],[-84.361771256698,33.9097623812544],[-84.3618374192351,33.9091449662446],[-84.3618537021688,33.9090583728586],[-84.3618774027361,33.9089724547585],[-84.3619085240458,33.9088885851222],[-84.3619462412898,33.9088064235329],[-84.3619905560161,33.9087266561249],[-84.3620406449859,33.9086496277192],[-84.3620981569867,33.9085756792152],[-84.3621614447766,33.908505156739],[-84.3622296851252,33.9084384042094],[-84.3625948154543,33.9081190353699],[-84.3627305053617,33.9080006469244],[-84.3627905437017,33.9079503971034],[-84.3628711557219,33.907889121773],[-84.3629550715008,33.9078312763473],[-84.3630488743723,33.9077730715795],[-84.3631459825698,33.9077189837346],[-84.3632463968895,33.9076693563258],[-84.363344355959,33.9076266032],[-84.3634349152332,33.9075914184043],[-84.3635501848788,33.9075520726838],[-84.3636382933336,33.9075261676578],[-84.3641743789934,33.9073789687908],[-84.3647012797053,33.9071802540206],[-84.3647047583118,33.907179729989],[-84.3647641780051,33.9051616113169],[-84.3647679490507,33.9050107989344],[-84.3647825898464,33.9049283300196],[-84.3648161906932,33.9048496084499],[-84.3648671107611,33.9047777303546],[-84.3649263038415,33.9047202668631],[-84.364986337007,33.9046693289157],[-84.3650546023443,33.9046156295021],[-84.3651195868458,33.9045684622612],[-84.3651854000211,33.9045233547849],[-84.3652536898093,33.904480304415],[-84.3653261073333,33.9044406825744],[-84.365445357756,33.9043436159859],[-84.3654963179516,33.9042889136817],[-84.365543142816,33.9042280346291],[-84.3655874646039,33.9041537622262],[-84.3659171551519,33.9034898857938],[-84.3660508368543,33.9032213784625],[-84.3662415169787,33.90266250125],[-84.3665708050027,33.9018302975425],[-84.3666224888169,33.9017340273534],[-84.366798872068,33.9014067065677],[-84.3671048740818,33.9008387088841],[-84.3675225472786,33.9001094153677],[-84.3675578109226,33.9000389357309],[-84.3675913517249,33.8999365112887],[-84.3676051940425,33.8998664091931],[-84.3676107955029,33.8997956343937],[-84.3676101065206,33.8995019236556],[-84.3676130149558,33.8989856025382],[-84.3676146059389,33.8986101296397],[-84.3676464341006,33.8984798817125],[-84.3676564287419,33.8964187251934],[-84.367664485365,33.895287488577],[-84.3676663165367,33.8946633035682],[-84.3676706263247,33.8943932866117],[-84.3676844978927,33.8936337338151],[-84.3696172312893,33.8936082362601],[-84.3711899460864,33.8935877714516],[-84.3720442690666,33.8935760446011],[-84.372621782041,33.8935685536195],[-84.3727140496699,33.8935663382082],[-84.3728219814228,33.8935685623166],[-84.3729225066888,33.8935742339593],[-84.3730139777536,33.8935833559139],[-84.3733304580321,33.8936309195686],[-84.3738142759383,33.8937166748391],[-84.3738983432735,33.8937302743823],[-84.3739972318742,33.8937404136983],[-84.3740878635619,33.8937430093318],[-84.3741842592239,33.8937438775756],[-84.3742748809317,33.8937423508132],[-84.3743654968068,33.8937384193336],[-84.3776234862712,33.8935710837311],[-84.3781721074434,33.8935409436887],[-84.3794513971685,33.893470379837],[-84.3795667336774,33.8934681194503],[-84.3796606589596,33.8934700182474],[-84.3797545936432,33.8934756957085],[-84.3798477130246,33.8934848097374],[-84.379947434432,33.8934983780649],[-84.3800529385258,33.8935177761853],[-84.3801502089603,33.8935395931425],[-84.3802532627476,33.8935679269317],[-84.3803538552989,33.8936003880794],[-84.3812600452131,33.8939035178215],[-84.3813141357768,33.8944475646721],[-84.3813740423868,33.8950108394916],[-84.3813850127688,33.8951145642546],[-84.3814797856322,33.8961109603639],[-84.3815186854598,33.8965100668298],[-84.381545647906,33.8967484254604],[-84.3815499603744,33.8968253670212],[-84.381554272851,33.8969023085808],[-84.3815577623027,33.8969795950975],[-84.3815613034623,33.8970774928834],[-84.381564009532,33.8971709263296],[-84.3815642042796,33.8972485630141],[-84.3815627908679,33.8973420036433],[-84.3815580809957,33.8974351064985],[-84.3815501142886,33.8975436735519],[-84.3815404609866,33.8976367850257],[-84.3815267243429,33.8977443324713],[-84.3815121275764,33.8978374525614],[-84.3814950547599,33.897928859353],[-84.3814755136388,33.8980216445353],[-84.3814534981775,33.8981134043609],[-84.3814298331318,33.89820447911],[-84.3814036954532,33.8982952146407],[-84.3813750842731,33.8983852674303],[-84.3813440004451,33.8984749809983],[-84.3813104431034,33.8985640127233],[-84.3812744122366,33.8986523608002],[-84.3812432869052,33.8987255853275],[-84.3812039576716,33.8988129085589],[-84.3811687100765,33.8988851096767],[-84.3811252566037,33.8989710659716],[-84.3810785058892,33.8990559983227],[-84.3810227255338,33.8991543428451],[-84.3809800546649,33.8992234651185],[-84.3808873722005,33.899391608846],[-84.3808307589038,33.8994865204016],[-84.3807716702861,33.8995800612402],[-84.3807084593614,33.899672578644],[-84.3806427713873,33.8997630391815],[-84.3805696780434,33.8998579783341],[-84.3804973906794,33.8999453594494],[-84.3799947389283,33.9005848401367],[-84.3798312924496,33.9007922671221],[-84.3796727742617,33.9009938463838],[-84.3791051646884,33.9016921779955],[-84.3790213774385,33.9017950365653],[-84.378972092299,33.9018566120278],[-84.3789187156984,33.9019291872373],[-84.3788070908817,33.9021035453797],[-84.3787554197209,33.9021994780049],[-84.3787127982415,33.9022898977702],[-84.3786331645255,33.9024068324354],[-84.3786399439844,33.9024827392202],[-84.3786178682562,33.9025518252056],[-84.3785974454931,33.9026229703786],[-84.3785794945436,33.9026941103937],[-84.3785591244027,33.9027865529543],[-84.3785412524159,33.9028896404073],[-84.3785315442879,33.9029621403248],[-84.3785219143177,33.9030662450656],[-84.3785171762187,33.9031493856257],[-84.3785458900435,33.9034320551382],[-84.3785945014742,33.9047631231625],[-84.3786436936321,33.9059952554842],[-84.3787663577421,33.908945218594],[-84.3788046836459,33.9094959067518],[-84.3786040518943,33.909501828718],[-84.3785165614778,33.9095181977888],[-84.3784387558158,33.9095183315808],[-84.3783221486192,33.9095590766156],[-84.3775640061547,33.909746884206],[-84.377194110881,33.9096177729442],[-84.3771552090829,33.909617839427],[-84.3769703210977,33.909577610617],[-84.3768536135933,33.90957780982],[-84.3767660619861,33.909569849902],[-84.3767174342236,33.9095699328355],[-84.3766300030168,33.9096106265133],[-84.3764747491406,33.9097568536499],[-84.3763582201061,33.9098300329249],[-84.376261062445,33.9098707437992],[-84.3761638253336,33.9098790185008],[-84.3760666080314,33.9098954014736],[-84.3759110752589,33.9099281020127],[-84.3758624472903,33.9099281846094],[-84.3757262476521,33.9099121981832],[-84.3755998532286,33.9099286303048],[-84.3754734785306,33.9099531715466],[-84.3753665942716,33.9099938982039],[-84.3753083192616,33.9100264322563],[-84.3752695544751,33.9100832610908],[-84.375211338617,33.9101401228462],[-84.3751433571396,33.9101807834381],[-84.3750753953325,33.9102295523404],[-84.3750462379652,33.9102377109531],[-84.3749102746313,33.9103190310154],[-84.374910412678,33.9103757939588],[-84.3748618228026,33.9103920937606],[-84.3747258010191,33.9104490867703],[-84.3746868780552,33.9104410432273],[-84.374667465282,33.9104572945758],[-84.374570286408,33.910489893967],[-84.3743952822778,33.9105145170748],[-84.3743758104191,33.9105064406289],[-84.3743174363588,33.9104984297678],[-84.3742492969022,33.9104742176727],[-84.3742103346623,33.9104499563812],[-84.374083723078,33.9103771888082],[-84.3740448002061,33.9103691450619],[-84.3740253098591,33.9103529602099],[-84.373976680562,33.9103530420648],[-84.3739377195334,33.9103287797826],[-84.373918247762,33.9103207041654],[-84.3737819497792,33.9102641702421],[-84.3737624987291,33.9102642029468],[-84.3736943596145,33.9102399905425],[-84.373606769499,33.9102158107803],[-84.3733829591383,33.9101675317887],[-84.3732662116738,33.9101515099962],[-84.3731688761611,33.9101192369836],[-84.3731008546242,33.9101436779506],[-84.3730619319514,33.9101356347943],[-84.3728672221316,33.9100548698663],[-84.3727116108571,33.9100551302661],[-84.3726337266597,33.9100228251921],[-84.3725558825946,33.9100067367658],[-84.3724877830067,33.9099987421935],[-84.3723221926098,33.9098936007896],[-84.3722637986047,33.9098774806043],[-84.3722054057029,33.9098613603893],[-84.3721276007791,33.9098614901942],[-84.372049892021,33.9099021644065],[-84.3719721443049,33.9099266209682],[-84.3719138291715,33.9099429367199],[-84.3718165915375,33.9099512070898],[-84.3716318228386,33.9099596239674],[-84.3715832131638,33.9099678141283],[-84.3715540749497,33.9099840802657],[-84.3715151912896,33.9099922542214],[-84.3714471499831,33.9100085850253],[-84.3710680603923,33.9100984140979],[-84.3709999802149,33.9100985270531],[-84.3709513510531,33.9100986077132],[-84.3709124877046,33.9101148898274],[-84.3708833493144,33.910131156708],[-84.3708639745604,33.9101636250624],[-84.3708640712474,33.9102041695181],[-84.3708544805442,33.9102609486002],[-84.3708448135658,33.9102852915744],[-84.3708156751049,33.9103015584388],[-84.3707865548804,33.9103259336482],[-84.3707185142493,33.9103422640484],[-84.3706893746635,33.9103585308847],[-84.3706602361459,33.9103747968108],[-84.370611588593,33.9103667680838],[-84.370572685357,33.9103668324908],[-84.3705435468164,33.9103830992909],[-84.3705533115135,33.9103993007939],[-84.3705338979595,33.9104155505923],[-84.3704950526117,33.9104399427299],[-84.3704659719295,33.9104805354632],[-84.3704465594219,33.910496785246],[-84.3703688492868,33.9105374593003],[-84.3703202402422,33.9105456489619],[-84.3703007880425,33.9105456811219],[-84.3702618847245,33.910545745431],[-84.3702522175457,33.9105700883583],[-84.3702133334933,33.9105782619037],[-84.3701258210714,33.9105865148685],[-84.3699764191181,33.9107529306387],[-84.369972775507,33.9107523253459],[-84.3692887755276,33.9106197385061],[-84.3688457632351,33.9105473584827],[-84.3653304202525,33.9099884417056]]]}},{"type":"Feature","properties":{"precinct_id":"SS07C"},"geometry":{"type":"Polygon","coordinates":[[[-84.3741048342343,33.9115520732001],[-84.3742233974184,33.9118139527436],[-84.3742422079586,33.9118564699754],[-84.3744072072971,33.9122244698181],[-84.3743822070882,33.9122784701626],[-84.3743742079351,33.9123324697841],[-84.3743822071268,33.9123854695651],[-84.3744082080222,33.9124394695504],[-84.3745082074199,33.9125574696702],[-84.3758772083764,33.9141694700875],[-84.3759732076919,33.9140934698247],[-84.376110208135,33.9140074701002],[-84.376233208375,33.9139534704216],[-84.3763652087876,33.9139164699941],[-84.3764862084038,33.9138974703134],[-84.3772262088677,33.9138464698714],[-84.3776782091412,33.9137954700331],[-84.3778152088019,33.913760470127],[-84.3779422092203,33.9137144701801],[-84.3782702091671,33.9135444697347],[-84.3783592092379,33.9135154699887],[-84.378466208747,33.9134934701547],[-84.3785752093661,33.9134834702114],[-84.3791292642734,33.9134742216262],[-84.3792342093215,33.9134724699133],[-84.379239307937,33.9134705776048],[-84.3792929330168,33.9139346631944],[-84.3793225064831,33.9145608531619],[-84.3793227684388,33.9146663138759],[-84.3793230303959,33.914771774588],[-84.3793215921724,33.9148562843117],[-84.3793193819264,33.9149617492889],[-84.3793163177425,33.9150551924795],[-84.3793116275977,33.9151575700396],[-84.3793061133739,33.9152599499223],[-84.3792997716508,33.9153609562432],[-84.3792917885936,33.915464713569],[-84.3792813674223,33.9155822159678],[-84.3792701102072,33.9156949114052],[-84.3792588265162,33.9157969568125],[-84.3791535520498,33.9172086714784],[-84.3790299846987,33.9191124689726],[-84.3674302068364,33.9189084682081],[-84.3675298983983,33.9180084440766],[-84.3675302062041,33.9176616643484],[-84.3675302063146,33.9175059246176],[-84.3675298986771,33.9173084443475],[-84.3680298989715,33.9155084442285],[-84.3680231409269,33.911908481453],[-84.3677057832625,33.9119311511496],[-84.3667272271812,33.9120023062793],[-84.3665463577039,33.9120154571986],[-84.3654233550189,33.91210845383],[-84.3653233554461,33.911580656127],[-84.3653231402989,33.9102769714195],[-84.3653304202525,33.9099884417056],[-84.3688457632351,33.9105473584827],[-84.3692887755276,33.9106197385061],[-84.369972775507,33.9107523253459],[-84.3699764191181,33.9107529306387],[-84.3741048342343,33.9115520732001]]]}},{"type":"Feature","properties":{"precinct_id":"SS07D"},"geometry":{"type":"Polygon","coordinates":[[[-84.3741048342343,33.9115520732001],[-84.3746442080676,33.9116564688992],[-84.3761302084388,33.9139084693583],[-84.3783302097594,33.9134084690611],[-84.3792160597483,33.9133279380718],[-84.3792177107319,33.9133277882568],[-84.3792227555824,33.9133273296366],[-84.3792231048095,33.9133303476978],[-84.379239307937,33.9134705776048],[-84.3792342093215,33.9134724699133],[-84.3791292642734,33.9134742216262],[-84.3785752093661,33.9134834702114],[-84.378466208747,33.9134934701547],[-84.3783592092379,33.9135154699887],[-84.3782702091671,33.9135444697347],[-84.3779422092203,33.9137144701801],[-84.3778152088019,33.913760470127],[-84.3776782091412,33.9137954700331],[-84.3772262088677,33.9138464698714],[-84.3764862084038,33.9138974703134],[-84.3763652087876,33.9139164699941],[-84.376233208375,33.9139534704216],[-84.376110208135,33.9140074701002],[-84.3759732076919,33.9140934698247],[-84.3758772083764,33.9141694700875],[-84.3745082074199,33.9125574696702],[-84.3744082080222,33.9124394695504],[-84.3743822071268,33.9123854695651],[-84.3743742079351,33.9123324697841],[-84.3743822070882,33.9122784701626],[-84.3744072072971,33.9122244698181],[-84.3742422079586,33.9118564699754],[-84.3742233974184,33.9118139527436],[-84.3741048342343,33.9115520732001]]]}}]}