{"type":"FeatureCollection","features":[{"type":"Feature","properties":{"precinct_2024":"SC08L","block_geoid20":"131210105261017","internal_point_in_fragment":false,"allocated_cvap24":0,"nov2025_precinct_at_point":""},"geometry":{"type":"Polygon","coordinates":[[[-84.53504,33.605308],[-84.53491500001006,33.605368999995086],[-84.53507819680716,33.60528924468151],[-84.53504,33.605308]]]}},{"type":"Feature","properties":{"precinct_2024":"UC01C","block_geoid20":"131210105293029","internal_point_in_fragment":true,"allocated_cvap24":0,"nov2025_precinct_at_point":"UC01C"},"geometry":{"type":"Polygon","coordinates":[[[-84.507376,33.592811],[-84.50737199999999,33.592982],[-84.507368,33.593136],[-84.50736370072589,33.593319696257595],[-84.507352,33.593783],[-84.507267,33.593779999999995],[-84.507263,33.594100000000005],[-84.50726043438074,33.594376445474744],[-84.50725739337476,33.59465270186204],[-84.507255,33.594834],[-84.507246,33.595282],[-84.507235,33.596686999999996],[-84.50723499999205,33.59668699999997],[-84.50610785831317,33.59668199048139],[-84.5061,33.596626],[-84.506074,33.596537999999995],[-84.505996,33.59637],[-84.505906,33.596207],[-84.505839,33.596098999999995],[-84.505785,33.595924],[-84.50576,33.595811],[-84.505746,33.595746999999996],[-84.505721,33.595568],[-84.505708,33.595298],[-84.505713,33.595208],[-84.505726,33.595119],[-84.505746,33.59503],[-84.505774,33.594943],[-84.505809,33.594857999999995],[-84.50585099999999,33.594775],[-84.50590000000001,33.594695],[-84.505955,33.594617],[-84.506016,33.594543],[-84.50608299999999,33.594471999999996],[-84.50615599999999,33.594406],[-84.506224,33.594336],[-84.506287,33.594263],[-84.506344,33.594186],[-84.506395,33.594107],[-84.506441,33.594026],[-84.506478,33.593941],[-84.506506,33.593854],[-84.506526,33.593765],[-84.506536,33.593675999999995],[-84.506537,33.593586],[-84.50653,33.593496],[-84.506515,33.593406],[-84.50649299999999,33.593318],[-84.506464,33.593230999999996],[-84.506428,33.593147],[-84.506384,33.593064],[-84.506348,33.592979],[-84.50632,33.592892],[-84.506301,33.592804],[-84.506288,33.592714],[-84.506283,33.592624],[-84.506284,33.592534],[-84.50629099999999,33.592444],[-84.506306,33.592355],[-84.506354,33.592155999999996],[-84.506368,33.592067],[-84.506374,33.591977],[-84.506374,33.591887],[-84.506368,33.591797],[-84.506354,33.591708],[-84.50634099999999,33.591651],[-84.506816,33.591378999999996],[-84.508271,33.590544],[-84.508387,33.590602],[-84.508566,33.590702],[-84.508738,33.59081],[-84.50890299999999,33.590927],[-84.50944,33.591343],[-84.509693,33.591539],[-84.50994299999999,33.59171],[-84.50996701673911,33.59172490694152],[-84.507404,33.591724],[-84.50738025660378,33.59266414716944],[-84.507376,33.592811]]]}},{"type":"Feature","properties":{"precinct_2024":"08F2","block_geoid20":"131210097003004","internal_point_in_fragment":false,"allocated_cvap24":0,"nov2025_precinct_at_point":""},"geometry":{"type":"GeometryCollection","geometries":[{"type":"Polygon","coordinates":[[[-84.449727,33.826509],[-84.449778,33.826535],[-84.44997531327928,33.826653493765576],[-84.449585,33.826437],[-84.449727,33.826509]]]},{"type":"Polygon","coordinates":[[[-84.450727,33.827003999999995],[-84.45072700000007,33.82700400000002],[-84.450727,33.827004],[-84.45072699999983,33.82700399999993],[-84.450727,33.827003999999995]]]},{"type":"Polygon","coordinates":[[[-84.451908,33.827208999999996],[-84.45190800000015,33.827209],[-84.451908,33.827209],[-84.45190799999992,33.82720899999999],[-84.451908,33.827208999999996]]]},{"type":"Polygon","coordinates":[[[-84.45276799999999,33.827168],[-84.45289,33.827147],[-84.453856,33.827041],[-84.452555,33.827196],[-84.45255499999999,33.827196],[-84.45276799999999,33.827168]]]},{"type":"Point","coordinates":[-84.450335,33.826853]},{"type":"Point","coordinates":[-84.455131,33.826798]}]}},{"type":"Feature","properties":{"precinct_2024":"08F2","block_geoid20":"131210089062005","internal_point_in_fragment":true,"allocated_cvap24":0,"nov2025_precinct_at_point":"08F2"},"geometry":{"type":"Polygon","coordinates":[[[-84.45513199999999,33.826671999999995],[-84.455038,33.826706],[-84.454517,33.826826],[-84.454411,33.826843],[-84.454304,33.826853],[-84.454196,33.826856],[-84.454088,33.826853],[-84.453981,33.826844],[-84.453873,33.826843],[-84.453766,33.826851999999995],[-84.45366,33.82687],[-84.45355699999999,33.826898],[-84.453349,33.826946],[-84.453138,33.826985],[-84.45275199999999,33.82704],[-84.45253799999999,33.827062999999995],[-84.452322,33.827073],[-84.452106,33.827069],[-84.45189099999999,33.827054],[-84.451571,33.827011999999996],[-84.451239,33.82695],[-84.45103,33.826906],[-84.450824,33.826851],[-84.450622,33.826788],[-84.450425,33.826715],[-84.450329,33.826673],[-84.45025,33.826634],[-84.450143,33.826581],[-84.450053,33.826526],[-84.449969,33.826474999999995],[-84.449857,33.826395999999995],[-84.44976799999999,33.826344999999996],[-84.449709,33.826315],[-84.44971533333329,33.82630866666671],[-84.449976,33.826052],[-84.450099,33.826088999999996],[-84.450244,33.826087],[-84.45046099999999,33.826063],[-84.45071899999995,33.826004000000005],[-84.450719,33.826004],[-84.451162,33.82582],[-84.45178,33.825647],[-84.452174,33.825511],[-84.452386,33.825515],[-84.452561,33.825616],[-84.45269799999984,33.82568399999992],[-84.452698,33.825684],[-84.45269800000037,33.825683999999974],[-84.45279699999999,33.825679],[-84.452899,33.825675],[-84.453418,33.825634],[-84.453884,33.825509],[-84.454297,33.825283999999996],[-84.4544959999991,33.8251730000005],[-84.454496,33.825173],[-84.454638,33.825027],[-84.4554922759201,33.82553970356109],[-84.4552,33.826631],[-84.45513199999999,33.826671999999995]]]}},{"type":"Feature","properties":{"precinct_2024":"12E2","block_geoid20":"131219800001004","internal_point_in_fragment":true,"allocated_cvap24":0,"nov2025_precinct_at_point":"01S"},"geometry":{"type":"Polygon","coordinates":[[[-84.425635,33.656785],[-84.425564,33.657531999999996],[-84.423951,33.657783],[-84.423571,33.657812],[-84.42309499999999,33.657815],[-84.42309499999999,33.657033999999996],[-84.423215,33.656698999999996],[-84.423239,33.656575],[-84.42324599999999,33.655589],[-84.42322999999999,33.655497],[-84.423143,33.655345],[-84.423116,33.655235],[-84.42311099999999,33.654815],[-84.423108,33.654486999999996],[-84.423098,33.653593],[-84.423096,33.653436],[-84.423217,33.653436],[-84.424086,33.653528],[-84.42445699999999,33.653563999999996],[-84.424723,33.653652],[-84.424943,33.653776],[-84.42514899999999,33.653919],[-84.425281,33.654081],[-84.425403,33.654412],[-84.42593699999999,33.656355],[-84.426219,33.656504999999996],[-84.425635,33.656785]]]}},{"type":"Feature","properties":{"precinct_2024":"RW22B","block_geoid20":"131210114322000","internal_point_in_fragment":false,"allocated_cvap24":0,"nov2025_precinct_at_point":""},"geometry":{"type":"GeometryCollection","geometries":[{"type":"Polygon","coordinates":[[[-84.274833,33.992163],[-84.27493299999999,33.992032],[-84.275066,33.991923],[-84.27538080651703,33.991737273441274],[-84.274933,33.992032],[-84.274774,33.992298],[-84.274833,33.992163]]]},{"type":"Polygon","coordinates":[[[-84.27613099999999,33.991178],[-84.27627,33.991078],[-84.275638,33.991568],[-84.27613099999999,33.991178]]]},{"type":"Polygon","coordinates":[[[-84.276474,33.990958],[-84.27680199999999,33.9908],[-84.27680199999999,33.99080000000001],[-84.27627,33.991078],[-84.276474,33.990958]]]},{"type":"Point","coordinates":[-84.273909,33.993304]},{"type":"Point","coordinates":[-84.274295,33.993305]},{"type":"Point","coordinates":[-84.274433,33.993257]},{"type":"Point","coordinates":[-84.274642,33.992959]}]}},{"type":"Feature","properties":{"precinct_2024":"UC01C","block_geoid20":"131210105291012","internal_point_in_fragment":false,"allocated_cvap24":0,"nov2025_precinct_at_point":""},"geometry":{"type":"GeometryCollection","geometries":[{"type":"Polygon","coordinates":[[[-84.499735,33.595903],[-84.49950199999999,33.595991999999995],[-84.499203,33.596088],[-84.499043,33.596133],[-84.499822,33.595864],[-84.499735,33.595903]]]},{"type":"Polygon","coordinates":[[[-84.49834899999999,33.594324],[-84.49829,33.594252],[-84.49851299999612,33.59452299999529],[-84.49834899999999,33.594324]]]},{"type":"Polygon","coordinates":[[[-84.4991,33.593778],[-84.499296,33.594024],[-84.499302,33.594032],[-84.499067,33.593738],[-84.4991,33.593778]]]},{"type":"LineString","coordinates":[[-84.499043,33.596133],[-84.498965,33.596018]]}]}},{"type":"Feature","properties":{"precinct_2024":"SC21A","block_geoid20":"131210105282014","internal_point_in_fragment":false,"allocated_cvap24":0,"nov2025_precinct_at_point":""},"geometry":{"type":"GeometryCollection","geometries":[{"type":"Polygon","coordinates":[[[-84.550392,33.55876],[-84.550524,33.55838],[-84.550343,33.559013],[-84.550392,33.55876]]]},{"type":"Polygon","coordinates":[[[-84.55063799999999,33.55823],[-84.550798,33.558113999999996],[-84.552347,33.557442],[-84.55263,33.557351],[-84.550798,33.558114],[-84.550524,33.55838],[-84.55063799999999,33.55823]]]},{"type":"Polygon","coordinates":[[[-84.552866,33.557292],[-84.553163,33.55724],[-84.55376299999999,33.55717],[-84.55376300000006,33.557169999999985],[-84.553763,33.55717],[-84.55263,33.557351],[-84.552866,33.557292]]]},{"type":"Point","coordinates":[-84.554835,33.556615]},{"type":"Point","coordinates":[-84.554214,33.557038]},{"type":"Point","coordinates":[-84.554639,33.5568]}]}},{"type":"Feature","properties":{"precinct_2024":"SC07B","block_geoid20":"131210103082013","internal_point_in_fragment":false,"allocated_cvap24":0,"nov2025_precinct_at_point":""},"geometry":{"type":"Polygon","coordinates":[[[-84.582167,33.624677999999996],[-84.582166,33.624687],[-84.582155,33.625201],[-84.582155,33.625211],[-84.58213907619465,33.624672652888336],[-84.582167,33.624677999999996]]]}},{"type":"Feature","properties":{"precinct_2024":"08F2","block_geoid20":"131210089062001","internal_point_in_fragment":false,"allocated_cvap24":0,"nov2025_precinct_at_point":""},"geometry":{"type":"Polygon","coordinates":[[[-84.449709,33.826315],[-84.44970893453919,33.826314967269596],[-84.44971533333329,33.82630866666671],[-84.449709,33.826315]]]}},{"type":"Feature","properties":{"precinct_2024":"SC08L","block_geoid20":"131210105263011","internal_point_in_fragment":false,"allocated_cvap24":0,"nov2025_precinct_at_point":""},"geometry":{"type":"Polygon","coordinates":[[[-84.54902799999999,33.598883],[-84.54898,33.598808],[-84.54899485865005,33.598801808895814],[-84.549334,33.59936],[-84.54902799999999,33.598883]]]}},{"type":"Feature","properties":{"precinct_2024":"AP01E","block_geoid20":"131210114341004","internal_point_in_fragment":false,"allocated_cvap24":0,"nov2025_precinct_at_point":""},"geometry":{"type":"GeometryCollection","geometries":[{"type":"Polygon","coordinates":[[[-84.299213,34.038607999999996],[-84.299294,34.038468],[-84.299213,34.038608],[-84.299213,34.038607999999996]]]},{"type":"Polygon","coordinates":[[[-84.29977099999999,34.037897],[-84.299795,34.037654],[-84.299771,34.037897],[-84.299621,34.038166],[-84.29977099999999,34.037897]]]},{"type":"LineString","coordinates":[[-84.299213,34.038878],[-84.299213,34.038608]]},{"type":"LineString","coordinates":[[-84.299294,34.038468],[-84.299621,34.038166]]},{"type":"LineString","coordinates":[[-84.297962,34.037605],[-84.297967,34.038877]]}]}},{"type":"Feature","properties":{"precinct_2024":"SC29B","block_geoid20":"131210105251001","internal_point_in_fragment":true,"allocated_cvap24":0,"nov2025_precinct_at_point":"SC08B"},"geometry":{"type":"Polygon","coordinates":[[[-84.51614599999999,33.586126],[-84.516077,33.586203999999995],[-84.5160769999999,33.58620399999994],[-84.515318,33.585741],[-84.515351,33.585702],[-84.51559492156746,33.5853992549034],[-84.515805,33.58514],[-84.51580500010974,33.58514000006964],[-84.51639899999999,33.585516999999996],[-84.51658499999999,33.585634999999996],[-84.51614599999999,33.586126]]]}},{"type":"Feature","properties":{"precinct_2024":"SC21A","block_geoid20":"131210105402002","internal_point_in_fragment":true,"allocated_cvap24":0,"nov2025_precinct_at_point":"SC07C"},"geometry":{"type":"Polygon","coordinates":[[[-84.55145399999999,33.557368],[-84.54981599999999,33.558107],[-84.549797,33.558116],[-84.549768,33.558129],[-84.549654,33.557924],[-84.5496540000012,33.55792399999949],[-84.54968,33.557913],[-84.549734,33.55789],[-84.549763,33.557877999999995],[-84.551164,33.557282],[-84.551518,33.557126],[-84.55163,33.557294],[-84.55145399999999,33.557368]]]}},{"type":"Feature","properties":{"precinct_2024":"SC29B","block_geoid20":"131210105251000","internal_point_in_fragment":false,"allocated_cvap24":0,"nov2025_precinct_at_point":""},"geometry":{"type":"MultiPolygon","coordinates":[[[[-84.51614599999999,33.586126],[-84.51658499999999,33.585634999999996],[-84.51639899999999,33.585516999999996],[-84.51580500010974,33.58514000006964],[-84.516585,33.585635],[-84.516077,33.586203999999995],[-84.51614599999999,33.586126]]],[[[-84.515351,33.585702],[-84.515318,33.585741],[-84.51559492156746,33.5853992549034],[-84.515351,33.585702]]],[[[-84.51508,33.585529],[-84.51516,33.585443999999995],[-84.51516,33.585444],[-84.515042,33.58557],[-84.51508,33.585529]]],[[[-84.515115,33.585274999999996],[-84.515303,33.585032],[-84.515115,33.585275],[-84.515115,33.585274999999996]]],[[[-84.51507,33.584894],[-84.51507054860093,33.58489308841499],[-84.515303,33.585032],[-84.51507,33.584894]]]]}},{"type":"Feature","properties":{"precinct_2024":"SC29B","block_geoid20":"131210105332000","internal_point_in_fragment":false,"allocated_cvap24":0,"nov2025_precinct_at_point":""},"geometry":{"type":"Polygon","coordinates":[[[-84.51294,33.583619999999996],[-84.512726,33.583492],[-84.51324886955913,33.58380446376449],[-84.51294,33.583619999999996]]]}},{"type":"Feature","properties":{"precinct_2024":"SC14B","block_geoid20":"131210082024004","internal_point_in_fragment":false,"allocated_cvap24":0,"nov2025_precinct_at_point":""},"geometry":{"type":"GeometryCollection","geometries":[{"type":"Polygon","coordinates":[[[-84.521588,33.78688],[-84.52155599999999,33.786797],[-84.521532,33.786735],[-84.52160240497875,33.78687335039492],[-84.521588,33.78688]]]},{"type":"Polygon","coordinates":[[[-84.521181,33.786609999999996],[-84.521107,33.786612999999996],[-84.52105148463569,33.78660788674276],[-84.52120337499954,33.786609999999996],[-84.521181,33.786609999999996]]]},{"type":"Polygon","coordinates":[[[-84.520551,33.786674],[-84.52048599999999,33.786696],[-84.520448,33.786708],[-84.52036799999999,33.78673],[-84.52030599999999,33.786746],[-84.52017099999999,33.786775],[-84.520088,33.786781],[-84.52055799829203,33.786671582408204],[-84.520551,33.786674]]]},{"type":"Polygon","coordinates":[[[-84.52000199999999,33.786764999999995],[-84.51996799999999,33.786742],[-84.51991199999999,33.786702],[-84.519841,33.786652],[-84.519814,33.786618],[-84.51977900000001,33.786571000000016],[-84.519968,33.786742],[-84.520088,33.786781],[-84.52000199999999,33.786764999999995]]]},{"type":"Polygon","coordinates":[[[-84.51977099999999,33.786532],[-84.519759,33.786473],[-84.51977899999972,33.78657099999861],[-84.51977099999999,33.786532]]]},{"type":"Polygon","coordinates":[[[-84.519772,33.786432999999995],[-84.519795,33.78637],[-84.51983,33.786325],[-84.519759,33.786473],[-84.519772,33.786432999999995]]]},{"type":"Polygon","coordinates":[[[-84.51975,33.786324],[-84.51951,33.786321],[-84.51601699999999,33.786282],[-84.51574699999999,33.786279],[-84.515393,33.786265],[-84.51983,33.786325],[-84.51975,33.786324]]]},{"type":"Point","coordinates":[-84.520844,33.786605]}]}},{"type":"Feature","properties":{"precinct_2024":"UC033","block_geoid20":"131210105312002","internal_point_in_fragment":true,"allocated_cvap24":0,"nov2025_precinct_at_point":"UC033"},"geometry":{"type":"Polygon","coordinates":[[[-84.505478,33.589689],[-84.505152,33.589884],[-84.503011,33.591139999999996],[-84.500896,33.592403],[-84.49941,33.593284],[-84.499292,33.593354],[-84.49906399999999,33.593149],[-84.49731799999999,33.593146],[-84.497209,33.593146],[-84.497394,33.592647],[-84.49774099999999,33.592138],[-84.49881599999999,33.591256],[-84.499569,33.590897999999996],[-84.49990199999999,33.59082],[-84.502094,33.590303],[-84.50258,33.590184],[-84.503301,33.590007],[-84.50379,33.589872],[-84.50412,33.589757],[-84.504425,33.589624],[-84.50471399999999,33.589469],[-84.50500799999999,33.589278],[-84.50540199999999,33.588963],[-84.50541899999999,33.588971],[-84.50558199999999,33.588999],[-84.505682,33.589031999999996],[-84.50577,33.589084],[-84.505911,33.58922],[-84.50597599999999,33.589292],[-84.50603,33.589359],[-84.505478,33.589689]]]}},{"type":"Feature","properties":{"precinct_2024":"SC08L","block_geoid20":"131210105261033","internal_point_in_fragment":false,"allocated_cvap24":0,"nov2025_precinct_at_point":""},"geometry":{"type":"MultiPolygon","coordinates":[[[[-84.546568,33.600232999999996],[-84.54736966325486,33.60027466837257],[-84.546568,33.600233],[-84.545968,33.599837],[-84.546568,33.600232999999996]]],[[[-84.54863999999999,33.600235],[-84.5498,33.600232999999996],[-84.5498,33.600233],[-84.547453,33.600279],[-84.54863999999999,33.600235]]]]}},{"type":"Feature","properties":{"precinct_2024":"UC01C","block_geoid20":"131210105293032","internal_point_in_fragment":false,"allocated_cvap24":0,"nov2025_precinct_at_point":""},"geometry":{"type":"GeometryCollection","geometries":[{"type":"Polygon","coordinates":[[[-84.513173,33.589811],[-84.511994,33.589815],[-84.513385,33.58981],[-84.513173,33.589811]]]},{"type":"Polygon","coordinates":[[[-84.511843,33.589486],[-84.511764,33.589309],[-84.511994,33.589815],[-84.511843,33.589486]]]},{"type":"Polygon","coordinates":[[[-84.511231,33.588369],[-84.511161,33.588237],[-84.511764,33.589309],[-84.511231,33.588369]]]},{"type":"Polygon","coordinates":[[[-84.511226,33.5882],[-84.511341,33.588136],[-84.51141899999999,33.588093],[-84.511592,33.588021],[-84.511161,33.588237],[-84.511226,33.5882]]]},{"type":"LineString","coordinates":[[-84.515884,33.591594],[-84.513364,33.59159]]},{"type":"Point","coordinates":[-84.5134,33.58777]},{"type":"Point","coordinates":[-84.515919,33.587826]}]}},{"type":"Feature","properties":{"precinct_2024":"UC033","block_geoid20":"131210105312001","internal_point_in_fragment":false,"allocated_cvap24":0,"nov2025_precinct_at_point":""},"geometry":{"type":"GeometryCollection","geometries":[{"type":"Polygon","coordinates":[[[-84.49731799999999,33.593146],[-84.49906399999999,33.593149],[-84.497209,33.593146],[-84.49731799999999,33.593146]]]},{"type":"LineString","coordinates":[[-84.499292,33.593354],[-84.498902,33.593585]]}]}},{"type":"Feature","properties":{"precinct_2024":"SC08L","block_geoid20":"131210105261032","internal_point_in_fragment":false,"allocated_cvap24":0,"nov2025_precinct_at_point":""},"geometry":{"type":"GeometryCollection","geometries":[{"type":"Polygon","coordinates":[[[-84.54767,33.598337],[-84.547257,33.598741],[-84.54682200000073,33.5991559999993],[-84.54773950048914,33.5982635611498],[-84.54767,33.598337]]]},{"type":"Polygon","coordinates":[[[-84.546326,33.599581],[-84.545968,33.599837],[-84.5468219999998,33.599156000000164],[-84.546326,33.599581]]]},{"type":"Point","coordinates":[-84.548323,33.597696]}]}},{"type":"Feature","properties":{"precinct_2024":"SC08L","block_geoid20":"131210105261061","internal_point_in_fragment":true,"allocated_cvap24":0,"nov2025_precinct_at_point":"SC17B"},"geometry":{"type":"Polygon","coordinates":[[[-84.54863999999999,33.600235],[-84.547453,33.600279],[-84.54736966325486,33.60027466837257],[-84.546568,33.600232999999996],[-84.545968,33.599837],[-84.546326,33.599581],[-84.5468219999998,33.599156000000164],[-84.546822,33.599156],[-84.54682200000073,33.5991559999993],[-84.547257,33.598741],[-84.54767,33.598337],[-84.54773950048914,33.5982635611498],[-84.548323,33.597696],[-84.54846599999999,33.597946],[-84.548799,33.598524999999995],[-84.54892799999999,33.598727],[-84.54898,33.598808],[-84.54902799999999,33.598883],[-84.549334,33.59936],[-84.5498,33.600232999999996],[-84.54863999999999,33.600235]]]}},{"type":"Feature","properties":{"precinct_2024":"UC01C","block_geoid20":"131210105293031","internal_point_in_fragment":true,"allocated_cvap24":0,"nov2025_precinct_at_point":"UC01C"},"geometry":{"type":"Polygon","coordinates":[[[-84.51141899999999,33.588093],[-84.511341,33.588136],[-84.511226,33.5882],[-84.511161,33.588237],[-84.511088,33.588277999999995],[-84.510865,33.588443999999996],[-84.510791,33.588499],[-84.51062499999999,33.588654],[-84.509756,33.589563],[-84.509508,33.58978],[-84.50925,33.58997],[-84.508986,33.590135],[-84.508271,33.590544],[-84.508201,33.590511],[-84.50782,33.590342],[-84.507143,33.590064999999996],[-84.506856,33.589940999999996],[-84.506671,33.589849],[-84.506495,33.589745],[-84.506329,33.58963],[-84.50625,33.589569],[-84.50615557237715,33.589484856573705],[-84.509147,33.58769],[-84.510987,33.58652],[-84.5114469999982,33.58701099999807],[-84.51144699999999,33.587011],[-84.511445,33.587120999999996],[-84.511437,33.587584],[-84.511437,33.587624999999996],[-84.511437,33.587625],[-84.51144493858268,33.58765653070866],[-84.51150799999999,33.587907],[-84.511592,33.588021],[-84.51141899999999,33.588093]]]}},{"type":"Feature","properties":{"precinct_2024":"UC033","block_geoid20":"131210105293031","internal_point_in_fragment":false,"allocated_cvap24":0,"nov2025_precinct_at_point":""},"geometry":{"type":"Polygon","coordinates":[[[-84.506149,33.589479],[-84.50682499999999,33.589068],[-84.507468,33.588688],[-84.50615025709558,33.589480120184184],[-84.506149,33.589479]]]}},{"type":"Feature","properties":{"precinct_2024":"12E2","block_geoid20":"131219800001005","internal_point_in_fragment":true,"allocated_cvap24":0,"nov2025_precinct_at_point":"01S"},"geometry":{"type":"Polygon","coordinates":[[[-84.42593699999999,33.656355],[-84.425403,33.654412],[-84.425281,33.654081],[-84.42514899999999,33.653919],[-84.424943,33.653776],[-84.424723,33.653652],[-84.42445699999999,33.653563999999996],[-84.424086,33.653528],[-84.423217,33.653436],[-84.423881,33.653436],[-84.424764,33.653437],[-84.42490699999999,33.653453999999996],[-84.425046,33.653486],[-84.425179,33.653532],[-84.425322,33.653600000000004],[-84.425468,33.653696],[-84.425607,33.653822999999996],[-84.425708,33.653953],[-84.425748,33.65403],[-84.42578999999999,33.654111],[-84.425827,33.654227],[-84.425849,33.654364],[-84.425862,33.654966],[-84.425991,33.65603],[-84.426052,33.656228],[-84.42615099999999,33.656417],[-84.426219,33.656504999999996],[-84.42593699999999,33.656355]]]}},{"type":"Feature","properties":{"precinct_2024":"12E2","block_geoid20":"131219800001012","internal_point_in_fragment":false,"allocated_cvap24":0,"nov2025_precinct_at_point":""},"geometry":{"type":"GeometryCollection","geometries":[{"type":"Polygon","coordinates":[[[-84.42851399999999,33.653658],[-84.428527,33.653309],[-84.42850159006207,33.654096708076096],[-84.42851399999999,33.653658]]]},{"type":"LineString","coordinates":[[-84.428527,33.653309],[-84.428527,33.649536999999995]]},{"type":"LineString","coordinates":[[-84.428527,33.649536999999995],[-84.428527,33.648709]]},{"type":"Point","coordinates":[-84.428427,33.656409]}]}},{"type":"Feature","properties":{"precinct_2024":"RW22C","block_geoid20":"131210114241006","internal_point_in_fragment":false,"allocated_cvap24":0,"nov2025_precinct_at_point":""},"geometry":{"type":"GeometryCollection","geometries":[{"type":"Polygon","coordinates":[[[-84.273383,33.989098],[-84.27323500000003,33.98926499999997],[-84.273455,33.98896],[-84.273383,33.989098]]]},{"type":"LineString","coordinates":[[-84.273455,33.98885],[-84.273455,33.98896]]},{"type":"LineString","coordinates":[[-84.273455,33.988839],[-84.273455,33.98885]]},{"type":"Point","coordinates":[-84.273107,33.99039]},{"type":"Point","coordinates":[-84.273138,33.989528]}]}},{"type":"Feature","properties":{"precinct_2024":"RW22C","block_geoid20":"131210114241010","internal_point_in_fragment":true,"allocated_cvap24":0,"nov2025_precinct_at_point":"JC19"},"geometry":{"type":"Polygon","coordinates":[[[-84.273556,33.988986],[-84.273499,33.989069],[-84.27346299999999,33.989121],[-84.27339099999999,33.989225],[-84.27332299999999,33.989357999999996],[-84.273304,33.989405999999995],[-84.273268,33.989494],[-84.273218,33.989720999999996],[-84.273213,33.989889],[-84.273228,33.990151],[-84.273241,33.990389],[-84.273107,33.99039],[-84.273138,33.989528],[-84.273235,33.989265],[-84.27323500000003,33.98926499999997],[-84.273383,33.989098],[-84.273455,33.98896],[-84.273455,33.98885],[-84.273455,33.988839],[-84.273308,33.988457],[-84.273432,33.988554],[-84.273764,33.988771],[-84.27366599999999,33.988872],[-84.273556,33.988986]]]}},{"type":"Feature","properties":{"precinct_2024":"SC21A","block_geoid20":"131210105282015","internal_point_in_fragment":false,"allocated_cvap24":0,"nov2025_precinct_at_point":""},"geometry":{"type":"GeometryCollection","geometries":[{"type":"Polygon","coordinates":[[[-84.54984216579842,33.55828980633982],[-84.549797,33.558116],[-84.549844,33.558289],[-84.54984216579842,33.55828980633982]]]},{"type":"LineString","coordinates":[[-84.549768,33.558129],[-84.549797,33.558116]]}]}},{"type":"Feature","properties":{"precinct_2024":"UC033","block_geoid20":"131210105312012","internal_point_in_fragment":false,"allocated_cvap24":0,"nov2025_precinct_at_point":""},"geometry":{"type":"GeometryCollection","geometries":[{"type":"Polygon","coordinates":[[[-84.506446,33.588077],[-84.50554,33.588853],[-84.50540199999999,33.588963],[-84.50539269556377,33.58895574569379],[-84.506616,33.587931],[-84.506446,33.588077]]]},{"type":"Polygon","coordinates":[[[-84.50780999999999,33.584013],[-84.507802,33.584139],[-84.50783790095849,33.58346110543071],[-84.50780999999999,33.584013]]]},{"type":"Polygon","coordinates":[[[-84.50738799999999,33.585203],[-84.50738300000025,33.58542899998871],[-84.50740999999998,33.58413500000055],[-84.50738799999999,33.585203]]]},{"type":"Polygon","coordinates":[[[-84.508455,33.585429],[-84.508667,33.585429999999995],[-84.508667,33.58543],[-84.507383,33.585429],[-84.508455,33.585429]]]},{"type":"Point","coordinates":[-84.50873,33.586123]},{"type":"Point","coordinates":[-84.507853,33.583176]}]}},{"type":"Feature","properties":{"precinct_2024":"SC29B","block_geoid20":"131210105251009","internal_point_in_fragment":true,"allocated_cvap24":0,"nov2025_precinct_at_point":"SC08B"},"geometry":{"type":"Polygon","coordinates":[[[-84.515115,33.585275],[-84.51516,33.585443999999995],[-84.51508,33.585529],[-84.515042,33.58557],[-84.514761,33.585409999999996],[-84.51463,33.585336999999996],[-84.514102,33.585074],[-84.51355799999999,33.584846],[-84.513702,33.584725],[-84.514044,33.584438],[-84.51415432983846,33.5843455614867],[-84.51455483870878,33.58458490322526],[-84.51507,33.584894],[-84.515303,33.585032],[-84.515115,33.585274999999996],[-84.515115,33.585275]]]}},{"type":"Feature","properties":{"precinct_2024":"SC29B","block_geoid20":"131210105332002","internal_point_in_fragment":true,"allocated_cvap24":0,"nov2025_precinct_at_point":"SC08B"},"geometry":{"type":"Polygon","coordinates":[[[-84.513702,33.584725],[-84.51355799999999,33.584846],[-84.513312,33.584742999999996],[-84.51346199999999,33.58462],[-84.513834,33.584315],[-84.51394781604976,33.58422215006466],[-84.51415432983846,33.5843455614867],[-84.514044,33.584438],[-84.513702,33.584725]]]}},{"type":"Feature","properties":{"precinct_2024":"SC29B","block_geoid20":"131210105332001","internal_point_in_fragment":true,"allocated_cvap24":0,"nov2025_precinct_at_point":"SC08B"},"geometry":{"type":"Polygon","coordinates":[[[-84.51346199999999,33.58462],[-84.513312,33.584742999999996],[-84.51290156785714,33.58460921607143],[-84.512634,33.584522],[-84.51263399999985,33.58452199999996],[-84.51222,33.584409],[-84.512124,33.584393999999996],[-84.512091,33.584376999999996],[-84.511555,33.584251],[-84.511409,33.584216999999995],[-84.511481,33.584007],[-84.511474,33.583491],[-84.512726,33.583492],[-84.51294,33.583619999999996],[-84.51324886955913,33.58380446376449],[-84.51394781604976,33.58422215006466],[-84.513834,33.584315],[-84.51346199999999,33.58462]]]}},{"type":"Feature","properties":{"precinct_2024":"UC01C","block_geoid20":"131210105293034","internal_point_in_fragment":false,"allocated_cvap24":0,"nov2025_precinct_at_point":""},"geometry":{"type":"GeometryCollection","geometries":[{"type":"Polygon","coordinates":[[[-84.513431,33.586788999999996],[-84.51342415617133,33.58699182619503],[-84.513442,33.586417],[-84.513441,33.58647],[-84.513431,33.586788999999996]]]},{"type":"Polygon","coordinates":[[[-84.513404,33.587648],[-84.5134,33.58777],[-84.51341024390221,33.58744000000741],[-84.513404,33.587648]]]},{"type":"Polygon","coordinates":[[[-84.51150799999999,33.587907],[-84.51144493858268,33.58765653070866],[-84.511508,33.587907],[-84.511592,33.588021],[-84.51150799999999,33.587907]]]},{"type":"Polygon","coordinates":[[[-84.511437,33.587584],[-84.511445,33.587120999999996],[-84.51144699999999,33.587011],[-84.5114469999982,33.58701099999807],[-84.511447,33.587011],[-84.511437,33.587624999999996],[-84.511437,33.587584]]]},{"type":"Point","coordinates":[-84.510987,33.58652]},{"type":"Point","coordinates":[-84.512001,33.585865]}]}},{"type":"Feature","properties":{"precinct_2024":"UC033","block_geoid20":"131210105312005","internal_point_in_fragment":true,"allocated_cvap24":0,"nov2025_precinct_at_point":"UC033"},"geometry":{"type":"Polygon","coordinates":[[[-84.50692599999999,33.588820999999996],[-84.50603,33.589359],[-84.50597599999999,33.589292],[-84.505911,33.58922],[-84.50577,33.589084],[-84.505682,33.589031999999996],[-84.50558199999999,33.588999],[-84.50541899999999,33.588971],[-84.50540199999999,33.588963],[-84.50554,33.588853],[-84.506446,33.588077],[-84.506616,33.587931],[-84.506683,33.588],[-84.50705099999999,33.588352],[-84.507114,33.588406],[-84.507331,33.588578999999996],[-84.50692599999999,33.588820999999996]]]}},{"type":"Feature","properties":{"precinct_2024":"SC08L","block_geoid20":"131210105261051","internal_point_in_fragment":true,"allocated_cvap24":0,"nov2025_precinct_at_point":"SC17B"},"geometry":{"type":"Polygon","coordinates":[[[-84.538483,33.605456],[-84.538365,33.605044],[-84.538305932628,33.60488676431963],[-84.538064,33.604109],[-84.53794512299466,33.60397343850267],[-84.537893,33.603914],[-84.54033299999999,33.60269600000001],[-84.54033299999998,33.602696000001025],[-84.540244,33.605531],[-84.538483,33.605456]]]}},{"type":"Feature","properties":{"precinct_2024":"SC08L","block_geoid20":"131210105261049","internal_point_in_fragment":false,"allocated_cvap24":0,"nov2025_precinct_at_point":""},"geometry":{"type":"GeometryCollection","geometries":[{"type":"Polygon","coordinates":[[[-84.54033299999999,33.60269600000001],[-84.540333,33.602696],[-84.54033299999998,33.602696000001025],[-84.54033299999999,33.60269600000001]]]},{"type":"LineString","coordinates":[[-84.538483,33.605456],[-84.540244,33.605531]]}]}},{"type":"Feature","properties":{"precinct_2024":"SC08L","block_geoid20":"131210105261012","internal_point_in_fragment":true,"allocated_cvap24":0,"nov2025_precinct_at_point":"SC17B"},"geometry":{"type":"Polygon","coordinates":[[[-84.534937,33.605409],[-84.534915,33.605369],[-84.53491500001006,33.605368999995086],[-84.53504,33.605308],[-84.53507819680716,33.60528924468151],[-84.53540199999999,33.60513100000001],[-84.53542399999999,33.605163999999995],[-84.535422,33.606299],[-84.534937,33.605409]]]}},{"type":"Feature","properties":{"precinct_2024":"UC01C","block_geoid20":"131210105291010","internal_point_in_fragment":false,"allocated_cvap24":0,"nov2025_precinct_at_point":""},"geometry":{"type":"Polygon","coordinates":[[[-84.49786037378911,33.596602837452764],[-84.497379,33.595348],[-84.497828,33.596478],[-84.497873,33.596602],[-84.49786037378911,33.596602837452764]]]}},{"type":"Feature","properties":{"precinct_2024":"08F2","block_geoid20":"131210089062006","internal_point_in_fragment":true,"allocated_cvap24":0,"nov2025_precinct_at_point":"08E"},"geometry":{"type":"Polygon","coordinates":[[[-84.45549299999999,33.826808],[-84.455131,33.826798],[-84.453856,33.827041],[-84.45289,33.827147],[-84.45276799999999,33.827168],[-84.45255499999999,33.827196],[-84.45190800000015,33.827209],[-84.451908,33.827208999999996],[-84.45190799999992,33.82720899999999],[-84.45072700000007,33.82700400000002],[-84.450727,33.827003999999995],[-84.45072699999983,33.82700399999993],[-84.450335,33.826853],[-84.44997531327928,33.826653493765576],[-84.449778,33.826535],[-84.449727,33.826509],[-84.449585,33.826437],[-84.449709,33.826315],[-84.44976799999999,33.826344999999996],[-84.449857,33.826395999999995],[-84.449969,33.826474999999995],[-84.450053,33.826526],[-84.450143,33.826581],[-84.45025,33.826634],[-84.450329,33.826673],[-84.450425,33.826715],[-84.450622,33.826788],[-84.450824,33.826851],[-84.45103,33.826906],[-84.451239,33.82695],[-84.451571,33.827011999999996],[-84.45189099999999,33.827054],[-84.452106,33.827069],[-84.452322,33.827073],[-84.45253799999999,33.827062999999995],[-84.45275199999999,33.82704],[-84.453138,33.826985],[-84.453349,33.826946],[-84.45355699999999,33.826898],[-84.45366,33.82687],[-84.453766,33.826851999999995],[-84.453873,33.826843],[-84.453981,33.826844],[-84.454088,33.826853],[-84.454196,33.826856],[-84.454304,33.826853],[-84.454411,33.826843],[-84.454517,33.826826],[-84.455038,33.826706],[-84.45513199999999,33.826671999999995],[-84.4552,33.826631],[-84.4554922759201,33.82553970356109],[-84.45587599999895,33.825769999999366],[-84.45587599999999,33.82577],[-84.455829,33.825804],[-84.4554930000055,33.82680799998357],[-84.45549299999999,33.826808]]]}},{"type":"Feature","properties":{"precinct_2024":"UC033","block_geoid20":"131210105312000","internal_point_in_fragment":false,"allocated_cvap24":0,"nov2025_precinct_at_point":""},"geometry":{"type":"Polygon","coordinates":[[[-84.498931,33.593603],[-84.499028,33.593689],[-84.499067,33.593738],[-84.498902,33.593585],[-84.498931,33.593603]]]}},{"type":"Feature","properties":{"precinct_2024":"SC08A","block_geoid20":"131210105263001","internal_point_in_fragment":false,"allocated_cvap24":0,"nov2025_precinct_at_point":""},"geometry":{"type":"Polygon","coordinates":[[[-84.556488,33.606946],[-84.55667799999999,33.606718],[-84.556845,33.606408],[-84.556678,33.606718],[-84.55650002177573,33.60695466084919],[-84.556488,33.606946]]]}},{"type":"Feature","properties":{"precinct_2024":"RW22C","block_geoid20":"131210114322007","internal_point_in_fragment":true,"allocated_cvap24":7,"nov2025_precinct_at_point":"RW20"},"geometry":{"type":"Polygon","coordinates":[[[-84.27526,33.989892999999995],[-84.273989,33.989853],[-84.274016,33.990415999999996],[-84.273241,33.990389],[-84.273228,33.990151],[-84.273213,33.989889],[-84.273218,33.989720999999996],[-84.273268,33.989494],[-84.273304,33.989405999999995],[-84.27332299999999,33.989357999999996],[-84.27339099999999,33.989225],[-84.27346299999999,33.989121],[-84.273499,33.989069],[-84.273556,33.988986],[-84.27366599999999,33.988872],[-84.273764,33.988771],[-84.274069,33.988979],[-84.275015,33.989624],[-84.275272,33.9898],[-84.275362,33.989858],[-84.27526,33.989892999999995]]]}},{"type":"Feature","properties":{"precinct_2024":"SC07B","block_geoid20":"131210103082019","internal_point_in_fragment":true,"allocated_cvap24":0,"nov2025_precinct_at_point":"SC07D"},"geometry":{"type":"Polygon","coordinates":[[[-84.582155,33.625201],[-84.582166,33.624687],[-84.582167,33.624677999999996],[-84.58213907619465,33.624672652888336],[-84.582129,33.624332],[-84.58212900000012,33.62433200000002],[-84.582285,33.624359],[-84.582555,33.624395],[-84.58334643390913,33.62447840028021],[-84.584025,33.62456],[-84.58402500000052,33.62456],[-84.584361,33.624566],[-84.584481,33.624562],[-84.584778,33.624992999999996],[-84.58480344142103,33.62502342479216],[-84.5849449999999,33.625225999999856],[-84.58494499999999,33.625226],[-84.582155,33.625211],[-84.582155,33.625201]]]}},{"type":"Feature","properties":{"precinct_2024":"SC29B","block_geoid20":"131210105251010","internal_point_in_fragment":false,"allocated_cvap24":0,"nov2025_precinct_at_point":""},"geometry":{"type":"Polygon","coordinates":[[[-84.51455483870878,33.58458490322526],[-84.51507054860093,33.58489308841499],[-84.51507,33.584894],[-84.51455483870878,33.58458490322526]]]}},{"type":"Feature","properties":{"precinct_2024":"12E2","block_geoid20":"131219800001010","internal_point_in_fragment":true,"allocated_cvap24":0,"nov2025_precinct_at_point":"01S"},"geometry":{"type":"Polygon","coordinates":[[[-84.428203,33.655955],[-84.428141,33.656117],[-84.428039,33.656281],[-84.42793499999999,33.656399],[-84.427917,33.656419],[-84.427775,33.656535999999996],[-84.42757999999999,33.656648],[-84.427374,33.656721],[-84.42712,33.65677],[-84.42689899999999,33.656776],[-84.426682,33.65674],[-84.426495,33.656672],[-84.426329,33.656573],[-84.42620199999999,33.656453],[-84.42615099999999,33.656417],[-84.426052,33.656228],[-84.425991,33.65603],[-84.425862,33.654966],[-84.428242,33.654966],[-84.42823899999999,33.655733999999995],[-84.428203,33.655955]]]}},{"type":"Feature","properties":{"precinct_2024":"RW22C","block_geoid20":"131210114322006","internal_point_in_fragment":false,"allocated_cvap24":0,"nov2025_precinct_at_point":""},"geometry":{"type":"GeometryCollection","geometries":[{"type":"Polygon","coordinates":[[[-84.273241,33.990389],[-84.274016,33.990415999999996],[-84.274016,33.990416],[-84.27324127103611,33.99039384053569],[-84.273241,33.990389]]]},{"type":"Polygon","coordinates":[[[-84.27526,33.989892999999995],[-84.275362,33.989858],[-84.27526,33.989893],[-84.273989,33.989853],[-84.27526,33.989892999999995]]]},{"type":"LineString","coordinates":[[-84.274016,33.990415999999996],[-84.273989,33.989853]]}]}},{"type":"Feature","properties":{"precinct_2024":"RW22B","block_geoid20":"131210114322006","internal_point_in_fragment":true,"allocated_cvap24":9,"nov2025_precinct_at_point":"RW20"},"geometry":{"type":"Polygon","coordinates":[[[-84.27627,33.991078],[-84.27613099999999,33.991178],[-84.275638,33.991568],[-84.27538080651703,33.991737273441274],[-84.275066,33.991923],[-84.27493299999999,33.992032],[-84.274833,33.992163],[-84.274774,33.992298],[-84.274642,33.992959],[-84.274433,33.993257],[-84.274295,33.993305],[-84.273909,33.993304],[-84.27337419431053,33.99305604463488],[-84.273354,33.992605999999995],[-84.27335099999999,33.99254],[-84.273305,33.991532],[-84.27324127103611,33.99039384053569],[-84.274016,33.990416],[-84.274016,33.990415999999996],[-84.273989,33.989853],[-84.27526,33.989893],[-84.275362,33.989858],[-84.27680199999999,33.9908],[-84.276474,33.990958],[-84.27627,33.991078]]]}},{"type":"Feature","properties":{"precinct_2024":"RW22C","block_geoid20":"131210114392000","internal_point_in_fragment":false,"allocated_cvap24":0,"nov2025_precinct_at_point":""},"geometry":{"type":"Polygon","coordinates":[[[-84.275272,33.9898],[-84.275015,33.989624],[-84.274069,33.988979],[-84.273764,33.988771],[-84.27376540822073,33.98876899070946],[-84.275362,33.989858],[-84.275272,33.9898]]]}},{"type":"Feature","properties":{"precinct_2024":"RW22B","block_geoid20":"131210114392000","internal_point_in_fragment":false,"allocated_cvap24":0,"nov2025_precinct_at_point":""},"geometry":{"type":"Polygon","coordinates":[[[-84.27680199999999,33.9908],[-84.275362,33.989858],[-84.276802,33.9908],[-84.27680199999999,33.99080000000001],[-84.27680199999999,33.9908]]]}},{"type":"Feature","properties":{"precinct_2024":"12E2","block_geoid20":"131219800001007","internal_point_in_fragment":true,"allocated_cvap24":0,"nov2025_precinct_at_point":"01S"},"geometry":{"type":"Polygon","coordinates":[[[-84.426914,33.657478999999995],[-84.426872,33.657199],[-84.426863,33.657140999999996],[-84.42682599999999,33.657038],[-84.42676999999999,33.656934],[-84.426692,33.656855],[-84.426301,33.656583],[-84.426219,33.656504999999996],[-84.42615099999999,33.656417],[-84.42620199999999,33.656453],[-84.426329,33.656573],[-84.426495,33.656672],[-84.426682,33.65674],[-84.42689899999999,33.656776],[-84.42712,33.65677],[-84.427374,33.656721],[-84.42757999999999,33.656648],[-84.427775,33.656535999999996],[-84.427917,33.656419],[-84.42793499999999,33.656399],[-84.428427,33.656409],[-84.428527,33.656608999999996],[-84.428547,33.657430999999995],[-84.42854899999999,33.657486],[-84.426914,33.657478999999995]]]}},{"type":"Feature","properties":{"precinct_2024":"SC05F","block_geoid20":"131210103092005","internal_point_in_fragment":false,"allocated_cvap24":0,"nov2025_precinct_at_point":""},"geometry":{"type":"Polygon","coordinates":[[[-84.609996,33.608532],[-84.61002405762787,33.6085261684146],[-84.611144,33.610405],[-84.609996,33.608532]]]}},{"type":"Feature","properties":{"precinct_2024":"SC14B","block_geoid20":"131210082024002","internal_point_in_fragment":true,"allocated_cvap24":0,"nov2025_precinct_at_point":"SC32"},"geometry":{"type":"Polygon","coordinates":[[[-84.520431,33.787805999999996],[-84.516031,33.790006],[-84.515411,33.790334],[-84.515331,33.790106],[-84.515331,33.790105999999994],[-84.516031,33.789806],[-84.51843099999999,33.788306],[-84.521531,33.786906],[-84.521588,33.78688],[-84.521625,33.786949],[-84.52171799999999,33.787112],[-84.521761,33.787185],[-84.520431,33.787805999999996]]]}},{"type":"Feature","properties":{"precinct_2024":"SC14B","block_geoid20":"131210082024003","internal_point_in_fragment":true,"allocated_cvap24":0,"nov2025_precinct_at_point":"SC32"},"geometry":{"type":"Polygon","coordinates":[[[-84.521531,33.786906],[-84.51843099999999,33.788306],[-84.516031,33.789806],[-84.515331,33.790105999999994],[-84.515393,33.786265],[-84.51574699999999,33.786279],[-84.51601699999999,33.786282],[-84.51951,33.786321],[-84.51975,33.786324],[-84.51983,33.786325],[-84.519795,33.78637],[-84.519772,33.786432999999995],[-84.519759,33.786473],[-84.51977099999999,33.786532],[-84.51977899999972,33.78657099999861],[-84.519779,33.786571],[-84.51977900000001,33.786571000000016],[-84.519814,33.786618],[-84.519841,33.786652],[-84.51991199999999,33.786702],[-84.51996799999999,33.786742],[-84.52000199999999,33.786764999999995],[-84.520088,33.786781],[-84.52017099999999,33.786775],[-84.52030599999999,33.786746],[-84.52036799999999,33.78673],[-84.520448,33.786708],[-84.52048599999999,33.786696],[-84.520551,33.786674],[-84.52055799829203,33.786671582408204],[-84.520844,33.786605],[-84.52105148463569,33.78660788674276],[-84.521107,33.786612999999996],[-84.521181,33.786609999999996],[-84.52120337499954,33.786609999999996],[-84.521419,33.786613],[-84.521532,33.786735],[-84.52155599999999,33.786797],[-84.521588,33.78688],[-84.521531,33.786906]]]}},{"type":"Feature","properties":{"precinct_2024":"SC29B","block_geoid20":"131210105292022","internal_point_in_fragment":false,"allocated_cvap24":0,"nov2025_precinct_at_point":""},"geometry":{"type":"Polygon","coordinates":[[[-84.516077,33.586203999999995],[-84.516077,33.586204],[-84.5160769999999,33.58620399999994],[-84.516077,33.586203999999995]]]}},{"type":"Feature","properties":{"precinct_2024":"UC01C","block_geoid20":"131210105292022","internal_point_in_fragment":false,"allocated_cvap24":0,"nov2025_precinct_at_point":""},"geometry":{"type":"Polygon","coordinates":[[[-84.51592699999999,33.586824],[-84.515927,33.586824],[-84.515927,33.58682400000001],[-84.51592699999999,33.586824]]]}},{"type":"Feature","properties":{"precinct_2024":"12E2","block_geoid20":"131210108013041","internal_point_in_fragment":false,"allocated_cvap24":0,"nov2025_precinct_at_point":""},"geometry":{"type":"Polygon","coordinates":[[[-84.428547,33.657430999999995],[-84.428527,33.656608999999996],[-84.42854763253011,33.657430999999995],[-84.428547,33.657430999999995]]]}},{"type":"Feature","properties":{"precinct_2024":"11C4","block_geoid20":"131210079003011","internal_point_in_fragment":true,"allocated_cvap24":0,"nov2025_precinct_at_point":"10B1"},"geometry":{"type":"Polygon","coordinates":[[[-84.50166899999999,33.735991],[-84.501516,33.73629],[-84.501087,33.738077],[-84.50083884070202,33.73802525828402],[-84.500909,33.737713],[-84.50107899999999,33.737136],[-84.501353,33.73612],[-84.501817,33.734625],[-84.501858,33.734434],[-84.501965,33.733979],[-84.502213,33.732844],[-84.501903,33.734593],[-84.501989,33.734944],[-84.50232799999999,33.735513],[-84.50166899999999,33.735991]]]}},{"type":"Feature","properties":{"precinct_2024":"SC29B","block_geoid20":"131210105312014","internal_point_in_fragment":false,"allocated_cvap24":0,"nov2025_precinct_at_point":""},"geometry":{"type":"Polygon","coordinates":[[[-84.51355793391862,33.584846043198816],[-84.513312,33.584743],[-84.51331199999998,33.584743],[-84.513312,33.584742999999996],[-84.51355799999999,33.584846],[-84.51355793391862,33.584846043198816]]]}},{"type":"Feature","properties":{"precinct_2024":"UC033","block_geoid20":"131210105312014","internal_point_in_fragment":false,"allocated_cvap24":0,"nov2025_precinct_at_point":""},"geometry":{"type":"Polygon","coordinates":[[[-84.50741599999999,33.588647],[-84.507331,33.588578999999996],[-84.5073395546955,33.58857387664847],[-84.507468,33.588688],[-84.50741599999999,33.588647]]]}},{"type":"Feature","properties":{"precinct_2024":"SC05F","block_geoid20":"131210105361020","internal_point_in_fragment":false,"allocated_cvap24":0,"nov2025_precinct_at_point":""},"geometry":{"type":"GeometryCollection","geometries":[{"type":"Polygon","coordinates":[[[-84.60874199999999,33.606563],[-84.610824,33.610445],[-84.60864700000008,33.60641800000012],[-84.60874199999999,33.606563]]]},{"type":"Point","coordinates":[-84.608746,33.606378]}]}},{"type":"Feature","properties":{"precinct_2024":"UC033","block_geoid20":"131210105323000","internal_point_in_fragment":false,"allocated_cvap24":0,"nov2025_precinct_at_point":""},"geometry":{"type":"GeometryCollection","geometries":[{"type":"Polygon","coordinates":[[[-84.50831099999999,33.583351],[-84.507853,33.583176],[-84.50925,33.583662],[-84.50831099999999,33.583351]]]},{"type":"LineString","coordinates":[[-84.510263,33.583948],[-84.50925,33.583662]]}]}},{"type":"Feature","properties":{"precinct_2024":"UC01C","block_geoid20":"131210105312003","internal_point_in_fragment":false,"allocated_cvap24":0,"nov2025_precinct_at_point":""},"geometry":{"type":"GeometryCollection","geometries":[{"type":"Polygon","coordinates":[[[-84.504384,33.590553],[-84.5038034049587,33.59089615702478],[-84.50495650980372,33.59020429411777],[-84.504384,33.590553]]]},{"type":"Point","coordinates":[-84.499067,33.593738]}]}},{"type":"Feature","properties":{"precinct_2024":"UC033","block_geoid20":"131210105312003","internal_point_in_fragment":true,"allocated_cvap24":0,"nov2025_precinct_at_point":"UC033"},"geometry":{"type":"Polygon","coordinates":[[[-84.50585394960558,33.589658236220906],[-84.5032773996056,33.591207049159834],[-84.501682,33.59215],[-84.499234,33.593627999999995],[-84.499067,33.593738],[-84.499028,33.593689],[-84.498931,33.593603],[-84.498902,33.593585],[-84.499292,33.593354],[-84.49941,33.593284],[-84.500896,33.592403],[-84.503011,33.591139999999996],[-84.505152,33.589884],[-84.505478,33.589689],[-84.50603,33.589359],[-84.506104,33.589436],[-84.506149,33.589479],[-84.50585394960558,33.589658236220906]]]}},{"type":"Feature","properties":{"precinct_2024":"11C4","block_geoid20":"131210079003012","internal_point_in_fragment":false,"allocated_cvap24":0,"nov2025_precinct_at_point":""},"geometry":{"type":"GeometryCollection","geometries":[{"type":"Polygon","coordinates":[[[-84.50166899999999,33.735991],[-84.50232799999999,33.735513],[-84.501989,33.734944],[-84.502328,33.735513],[-84.501669,33.735991],[-84.501516,33.73629],[-84.50166899999999,33.735991]]]},{"type":"Polygon","coordinates":[[[-84.50260899999999,33.731559],[-84.502609,33.731559],[-84.502213,33.732844],[-84.50260899999999,33.731559]]]},{"type":"LineString","coordinates":[[-84.501087,33.738077],[-84.501516,33.73629]]},{"type":"LineString","coordinates":[[-84.501989,33.734944],[-84.501903,33.734593]]},{"type":"LineString","coordinates":[[-84.501903,33.734593],[-84.502213,33.732844]]}]}},{"type":"Feature","properties":{"precinct_2024":"SC07B","block_geoid20":"131210103082018","internal_point_in_fragment":false,"allocated_cvap24":0,"nov2025_precinct_at_point":""},"geometry":{"type":"MultiPolygon","coordinates":[[[[-84.584361,33.624566],[-84.58402500000052,33.62456],[-84.584481,33.624562],[-84.584361,33.624566]]],[[[-84.582555,33.624395],[-84.582285,33.624359],[-84.58212900000012,33.62433200000002],[-84.58334643390913,33.62447840028021],[-84.582555,33.624395]]]]}},{"type":"Feature","properties":{"precinct_2024":"11C4","block_geoid20":"131210079003019","internal_point_in_fragment":true,"allocated_cvap24":0,"nov2025_precinct_at_point":"10B1"},"geometry":{"type":"Polygon","coordinates":[[[-84.502213,33.732844],[-84.50229499999999,33.732231],[-84.502363,33.73162],[-84.50236975424909,33.73155824686542],[-84.50260899999999,33.731559],[-84.502213,33.732844]]]}},{"type":"Feature","properties":{"precinct_2024":"11C4","block_geoid20":"131210079003010","internal_point_in_fragment":true,"allocated_cvap24":0,"nov2025_precinct_at_point":"10B1"},"geometry":{"type":"Polygon","coordinates":[[[-84.50229499999999,33.732231],[-84.502213,33.732844],[-84.501965,33.733979],[-84.501858,33.734434],[-84.501817,33.734625],[-84.501353,33.73612],[-84.50107899999999,33.737136],[-84.500909,33.737713],[-84.50083884070202,33.73802525828402],[-84.50061151106603,33.737977859594736],[-84.500712,33.737556999999995],[-84.501291,33.735564],[-84.501588,33.734581999999996],[-84.501803,33.733683],[-84.502009,33.732572999999995],[-84.502119,33.731764999999996],[-84.502141,33.731615],[-84.50214976289686,33.7315575543428],[-84.50236975424909,33.73155824686542],[-84.502363,33.73162],[-84.50229499999999,33.732231]]]}},{"type":"Feature","properties":{"precinct_2024":"11C4","block_geoid20":"131210079003009","internal_point_in_fragment":true,"allocated_cvap24":0,"nov2025_precinct_at_point":"10B1"},"geometry":{"type":"Polygon","coordinates":[[[-84.502119,33.731764999999996],[-84.502009,33.732572999999995],[-84.501803,33.733683],[-84.501588,33.734581999999996],[-84.501291,33.735564],[-84.500712,33.737556999999995],[-84.50061151106603,33.737977859594736],[-84.500099,33.737871],[-84.50124,33.734887],[-84.501656,33.731556],[-84.50214976289686,33.7315575543428],[-84.502141,33.731615],[-84.502119,33.731764999999996]]]}},{"type":"Feature","properties":{"precinct_2024":"SC21A","block_geoid20":"131210105282010","internal_point_in_fragment":false,"allocated_cvap24":0,"nov2025_precinct_at_point":""},"geometry":{"type":"Polygon","coordinates":[[[-84.55010000000003,33.55928199999997],[-84.5501,33.559282],[-84.5501,33.559281999999996],[-84.55010000000003,33.55928199999997]]]}},{"type":"Feature","properties":{"precinct_2024":"SC08L","block_geoid20":"131210105263012","internal_point_in_fragment":false,"allocated_cvap24":0,"nov2025_precinct_at_point":""},"geometry":{"type":"Polygon","coordinates":[[[-84.54898,33.598808],[-84.54892799999999,33.598727],[-84.548799,33.598524999999995],[-84.54882120924185,33.5985160001765],[-84.54899485865005,33.598801808895814],[-84.54898,33.598808]]]}},{"type":"Feature","properties":{"precinct_2024":"SC21A","block_geoid20":"131210105282009","internal_point_in_fragment":true,"allocated_cvap24":0,"nov2025_precinct_at_point":"SC07C"},"geometry":{"type":"Polygon","coordinates":[[[-84.55376299999999,33.55717],[-84.553163,33.55724],[-84.552866,33.557292],[-84.55263,33.557351],[-84.552347,33.557442],[-84.550798,33.558113999999996],[-84.55063799999999,33.55823],[-84.550524,33.55838],[-84.550392,33.55876],[-84.550343,33.559013],[-84.55010000000003,33.55928199999997],[-84.5501,33.559281999999996],[-84.549966,33.558727999999995],[-84.549844,33.558289],[-84.549797,33.558116],[-84.54981599999999,33.558107],[-84.55145399999999,33.557368],[-84.55163,33.557294],[-84.553934,33.556337],[-84.55407699999999,33.556384],[-84.554295,33.556456],[-84.554835,33.556615],[-84.554639,33.5568],[-84.554214,33.557038],[-84.55376300000006,33.557169999999985],[-84.55376299999999,33.55717]]]}},{"type":"Feature","properties":{"precinct_2024":"SC21A","block_geoid20":"131210105282000","internal_point_in_fragment":false,"allocated_cvap24":0,"nov2025_precinct_at_point":""},"geometry":{"type":"Polygon","coordinates":[[[-84.549844,33.558289],[-84.549966,33.558727999999995],[-84.5501,33.559281999999996],[-84.54984216579842,33.55828980633982],[-84.549844,33.558289]]]}},{"type":"Feature","properties":{"precinct_2024":"SC21A","block_geoid20":"131210105191047","internal_point_in_fragment":false,"allocated_cvap24":0,"nov2025_precinct_at_point":""},"geometry":{"type":"Polygon","coordinates":[[[-84.554295,33.556456],[-84.55407699999999,33.556384],[-84.553934,33.556337],[-84.554835,33.556615],[-84.554295,33.556456]]]}},{"type":"Feature","properties":{"precinct_2024":"12E2","block_geoid20":"131210108013028","internal_point_in_fragment":true,"allocated_cvap24":0,"nov2025_precinct_at_point":"01S"},"geometry":{"type":"Polygon","coordinates":[[[-84.42698,33.657607999999996],[-84.42698,33.657608],[-84.427007,33.65896],[-84.42288352399707,33.65889828286619],[-84.423071,33.658318],[-84.42309399999999,33.658158],[-84.42309499999999,33.657939],[-84.42309499999999,33.657815],[-84.423571,33.657812],[-84.423951,33.657783],[-84.425564,33.657531999999996],[-84.42568399999999,33.657513],[-84.425958,33.65748],[-84.426317,33.657461],[-84.426914,33.657478999999995],[-84.42854899999999,33.657486],[-84.428552,33.657605],[-84.42698,33.657607999999996]]]}},{"type":"Feature","properties":{"precinct_2024":"12E2","block_geoid20":"131219800001009","internal_point_in_fragment":false,"allocated_cvap24":0,"nov2025_precinct_at_point":""},"geometry":{"type":"GeometryCollection","geometries":[{"type":"Polygon","coordinates":[[[-84.419229,33.648668],[-84.41922866957728,33.64876393273081],[-84.419228,33.64860800000114],[-84.419229,33.648668]]]},{"type":"Point","coordinates":[-84.419201,33.655684]}]}},{"type":"Feature","properties":{"precinct_2024":"12E2","block_geoid20":"131219800001011","internal_point_in_fragment":true,"allocated_cvap24":0,"nov2025_precinct_at_point":"01S"},"geometry":{"type":"Polygon","coordinates":[[[-84.42793499999999,33.656399],[-84.428039,33.656281],[-84.428141,33.656117],[-84.428203,33.655955],[-84.42823899999999,33.655733999999995],[-84.428242,33.654966],[-84.4284735483871,33.654966],[-84.428427,33.656409],[-84.42793499999999,33.656399]]]}},{"type":"Feature","properties":{"precinct_2024":"SC08L","block_geoid20":"131210105261011","internal_point_in_fragment":false,"allocated_cvap24":0,"nov2025_precinct_at_point":""},"geometry":{"type":"GeometryCollection","geometries":[{"type":"Polygon","coordinates":[[[-84.534937,33.605409],[-84.535422,33.606299],[-84.534915,33.605369],[-84.534937,33.605409]]]},{"type":"Polygon","coordinates":[[[-84.53542399999999,33.605163999999995],[-84.53540199999999,33.60513100000001],[-84.535402,33.605131],[-84.535424,33.605164],[-84.535422,33.606299],[-84.53542399999999,33.605163999999995]]]},{"type":"Polygon","coordinates":[[[-84.538365,33.605044],[-84.538483,33.605456],[-84.538305932628,33.60488676431963],[-84.538365,33.605044]]]},{"type":"LineString","coordinates":[[-84.537893,33.603914],[-84.53794512299466,33.60397343850267]]}]}},{"type":"Feature","properties":{"precinct_2024":"SC05F","block_geoid20":"131210105362000","internal_point_in_fragment":false,"allocated_cvap24":0,"nov2025_precinct_at_point":""},"geometry":{"type":"GeometryCollection","geometries":[{"type":"Polygon","coordinates":[[[-84.609996,33.608532],[-84.60891099999999,33.606663],[-84.60883000000014,33.60652300000024],[-84.61002405762787,33.6085261684146],[-84.609996,33.608532]]]},{"type":"Polygon","coordinates":[[[-84.60883,33.606522999999996],[-84.609673,33.606173999999996],[-84.609776,33.606463],[-84.609673,33.606174],[-84.60883,33.606523],[-84.60883,33.606522999999996]]]},{"type":"Polygon","coordinates":[[[-84.609116,33.60461],[-84.60882199999999,33.60378500000001],[-84.608822,33.603785],[-84.60930299999875,33.60513299999651],[-84.609116,33.60461]]]},{"type":"LineString","coordinates":[[-84.60883000000014,33.60652300000024],[-84.60883,33.606523]]},{"type":"LineString","coordinates":[[-84.609776,33.606463],[-84.611108,33.605878]]},{"type":"LineString","coordinates":[[-84.611108,33.605878],[-84.610599,33.605097]]},{"type":"Point","coordinates":[-84.607629,33.604425]}]}},{"type":"Feature","properties":{"precinct_2024":"UC033","block_geoid20":"131210105312004","internal_point_in_fragment":true,"allocated_cvap24":0,"nov2025_precinct_at_point":"UC033"},"geometry":{"type":"Polygon","coordinates":[[[-84.50682499999999,33.589068],[-84.506149,33.589479],[-84.506104,33.589436],[-84.50603,33.589359],[-84.50692599999999,33.588820999999996],[-84.507331,33.588578999999996],[-84.50741599999999,33.588647],[-84.507468,33.588688],[-84.50682499999999,33.589068]]]}},{"type":"Feature","properties":{"precinct_2024":"UC01C","block_geoid20":"131210105293015","internal_point_in_fragment":false,"allocated_cvap24":0,"nov2025_precinct_at_point":""},"geometry":{"type":"Polygon","coordinates":[[[-84.507235,33.596686999999996],[-84.507246,33.595282],[-84.50725046643636,33.59528197092163],[-84.507235,33.596687],[-84.50723499999205,33.59668699999997],[-84.507235,33.596686999999996]]]}},{"type":"Feature","properties":{"precinct_2024":"SC08A","block_geoid20":"131210105263000","internal_point_in_fragment":false,"allocated_cvap24":0,"nov2025_precinct_at_point":""},"geometry":{"type":"Polygon","coordinates":[[[-84.55621699999999,33.607330999999995],[-84.556488,33.606946],[-84.55650002177573,33.60695466084919],[-84.556217,33.607331],[-84.55621699999999,33.607331],[-84.55621699999999,33.607330999999995]]]}},{"type":"Feature","properties":{"precinct_2024":"SC08A","block_geoid20":"131210105263010","internal_point_in_fragment":true,"allocated_cvap24":0,"nov2025_precinct_at_point":"SC08A"},"geometry":{"type":"Polygon","coordinates":[[[-84.55667799999999,33.606718],[-84.556488,33.606946],[-84.55621699999999,33.607330999999995],[-84.554881,33.607402],[-84.554914,33.60643],[-84.5549140000023,33.606429999999975],[-84.556719,33.606415],[-84.556845,33.606408],[-84.55667799999999,33.606718]]]}},{"type":"Feature","properties":{"precinct_2024":"SC14B","block_geoid20":"131210082024008","internal_point_in_fragment":false,"allocated_cvap24":0,"nov2025_precinct_at_point":""},"geometry":{"type":"Polygon","coordinates":[[[-84.52171799999999,33.787112],[-84.521625,33.786949],[-84.521588,33.78688],[-84.52160240497875,33.78687335039492],[-84.521761,33.787185],[-84.52171799999999,33.787112]]]}},{"type":"Feature","properties":{"precinct_2024":"UC01C","block_geoid20":"131210105292016","internal_point_in_fragment":false,"allocated_cvap24":0,"nov2025_precinct_at_point":""},"geometry":{"type":"GeometryCollection","geometries":[{"type":"Polygon","coordinates":[[[-84.515884,33.591594],[-84.515882,33.591727],[-84.51588199999999,33.591727],[-84.515884,33.591594]]]},{"type":"Polygon","coordinates":[[[-84.51592699999999,33.586824],[-84.515927,33.58682400000001],[-84.51592699999999,33.586824000001776],[-84.51592699999999,33.586824]]]},{"type":"Point","coordinates":[-84.515919,33.587826]}]}},{"type":"Feature","properties":{"precinct_2024":"UC01C","block_geoid20":"131210105293026","internal_point_in_fragment":false,"allocated_cvap24":0,"nov2025_precinct_at_point":""},"geometry":{"type":"GeometryCollection","geometries":[{"type":"Polygon","coordinates":[[[-84.507246,33.595282],[-84.507255,33.594834],[-84.50725739337476,33.59465270186204],[-84.50725046643636,33.59528197092163],[-84.507246,33.595282]]]},{"type":"Polygon","coordinates":[[[-84.507263,33.594100000000005],[-84.507267,33.593779999999995],[-84.507352,33.593783],[-84.507267,33.59378],[-84.50726043438074,33.594376445474744],[-84.507263,33.594100000000005]]]},{"type":"Polygon","coordinates":[[[-84.507368,33.593136],[-84.50737199999999,33.592982],[-84.507376,33.592811],[-84.50738025660378,33.59266414716944],[-84.50736370072589,33.593319696257595],[-84.507368,33.593136]]]},{"type":"Point","coordinates":[-84.507404,33.591724]}]}},{"type":"Feature","properties":{"precinct_2024":"UC01C","block_geoid20":"131210105291011","internal_point_in_fragment":true,"allocated_cvap24":0,"nov2025_precinct_at_point":"UC01C"},"geometry":{"type":"Polygon","coordinates":[[[-84.506526,33.593765],[-84.506506,33.593854],[-84.506478,33.593941],[-84.506441,33.594026],[-84.506395,33.594107],[-84.506344,33.594186],[-84.506287,33.594263],[-84.506224,33.594336],[-84.50615599999999,33.594406],[-84.50608299999999,33.594471999999996],[-84.506016,33.594543],[-84.505955,33.594617],[-84.50590000000001,33.594695],[-84.50585099999999,33.594775],[-84.505809,33.594857999999995],[-84.505774,33.594943],[-84.505746,33.59503],[-84.505726,33.595119],[-84.505713,33.595208],[-84.505708,33.595298],[-84.505721,33.595568],[-84.505746,33.595746999999996],[-84.50576,33.595811],[-84.505785,33.595924],[-84.505839,33.596098999999995],[-84.505906,33.596207],[-84.505996,33.59637],[-84.506074,33.596537999999995],[-84.5061,33.596626],[-84.50610785831317,33.59668199048139],[-84.50206,33.596664],[-84.502056,33.5982],[-84.500059,33.598211],[-84.500046,33.597785],[-84.50004,33.597574],[-84.500034,33.597405],[-84.499333,33.597395999999996],[-84.498352,33.597386],[-84.498175,33.597423],[-84.49817499999969,33.597422999999175],[-84.49802,33.597],[-84.497873,33.596602],[-84.497828,33.596478],[-84.498998,33.596146],[-84.499043,33.596133],[-84.499203,33.596088],[-84.49950199999999,33.595991999999995],[-84.499735,33.595903],[-84.499822,33.595864],[-84.49999,33.595788999999996],[-84.500248,33.595649],[-84.50043199999999,33.595549],[-84.500804,33.595293],[-84.502479,33.593972],[-84.502854,33.593702],[-84.503295,33.59341],[-84.503751,33.593134],[-84.505881,33.591915],[-84.50634099999999,33.591651],[-84.506354,33.591708],[-84.506368,33.591797],[-84.506374,33.591887],[-84.506374,33.591977],[-84.506368,33.592067],[-84.506354,33.592155999999996],[-84.506306,33.592355],[-84.50629099999999,33.592444],[-84.506284,33.592534],[-84.506283,33.592624],[-84.506288,33.592714],[-84.506301,33.592804],[-84.50632,33.592892],[-84.506348,33.592979],[-84.506384,33.593064],[-84.506428,33.593147],[-84.506464,33.593230999999996],[-84.50649299999999,33.593318],[-84.506515,33.593406],[-84.50653,33.593496],[-84.506537,33.593586],[-84.506536,33.593675999999995],[-84.506526,33.593765]]]}},{"type":"Feature","properties":{"precinct_2024":"12E2","block_geoid20":"131219800001006","internal_point_in_fragment":true,"allocated_cvap24":0,"nov2025_precinct_at_point":"01S"},"geometry":{"type":"Polygon","coordinates":[[[-84.426317,33.657461],[-84.425958,33.65748],[-84.42568399999999,33.657513],[-84.425564,33.657531999999996],[-84.425635,33.656785],[-84.426219,33.656504999999996],[-84.426301,33.656583],[-84.426692,33.656855],[-84.42676999999999,33.656934],[-84.42682599999999,33.657038],[-84.426863,33.657140999999996],[-84.426872,33.657199],[-84.426914,33.657478999999995],[-84.426317,33.657461]]]}},{"type":"Feature","properties":{"precinct_2024":"12E2","block_geoid20":"131210108013040","internal_point_in_fragment":false,"allocated_cvap24":0,"nov2025_precinct_at_point":""},"geometry":{"type":"Polygon","coordinates":[[[-84.42854899999999,33.657486],[-84.428547,33.657430999999995],[-84.42854763253011,33.657430999999995],[-84.42854901305405,33.65748600007354],[-84.42854899999999,33.657486]]]}},{"type":"Feature","properties":{"precinct_2024":"12E2","block_geoid20":"131219800001003","internal_point_in_fragment":true,"allocated_cvap24":0,"nov2025_precinct_at_point":"01S"},"geometry":{"type":"Polygon","coordinates":[[[-84.423215,33.656698999999996],[-84.42309499999999,33.657033999999996],[-84.42309499999999,33.657815],[-84.42196299999999,33.657796999999995],[-84.42096642556396,33.657782081221015],[-84.421255,33.656946],[-84.419201,33.655684],[-84.419223,33.655649],[-84.419516,33.655254],[-84.420495,33.653938],[-84.420605,33.653814],[-84.42082599999999,33.653642],[-84.420949,33.653574],[-84.421283,33.653439],[-84.423096,33.653436],[-84.423098,33.653593],[-84.423108,33.654486999999996],[-84.42311099999999,33.654815],[-84.423116,33.655235],[-84.423143,33.655345],[-84.42322999999999,33.655497],[-84.42324599999999,33.655589],[-84.423239,33.656575],[-84.423215,33.656698999999996]]]}},{"type":"Feature","properties":{"precinct_2024":"08F2","block_geoid20":"131210089062000","internal_point_in_fragment":false,"allocated_cvap24":0,"nov2025_precinct_at_point":""},"geometry":{"type":"Polygon","coordinates":[[[-84.449709,33.826315],[-84.449585,33.826437],[-84.44970893453919,33.826314967269596],[-84.449709,33.826315]]]}},{"type":"Feature","properties":{"precinct_2024":"SC29B","block_geoid20":"131210105312013","internal_point_in_fragment":false,"allocated_cvap24":0,"nov2025_precinct_at_point":""},"geometry":{"type":"MultiPolygon","coordinates":[[[[-84.51331199999998,33.584743],[-84.51290156785714,33.58460921607143],[-84.513312,33.584742999999996],[-84.51331199999998,33.584743]]],[[[-84.511555,33.584251],[-84.512091,33.584376999999996],[-84.512124,33.584393999999996],[-84.51222,33.584409],[-84.51263399999985,33.58452199999996],[-84.511409,33.584217],[-84.511409,33.584216999999995],[-84.511555,33.584251]]]]}},{"type":"Feature","properties":{"precinct_2024":"UC033","block_geoid20":"131210105312013","internal_point_in_fragment":false,"allocated_cvap24":0,"nov2025_precinct_at_point":""},"geometry":{"type":"GeometryCollection","geometries":[{"type":"Polygon","coordinates":[[[-84.507331,33.588578999999996],[-84.507114,33.588406],[-84.50705099999999,33.588352],[-84.506683,33.588],[-84.506616,33.587931],[-84.5073395546955,33.58857387664847],[-84.507331,33.588578999999996]]]},{"type":"LineString","coordinates":[[-84.509433,33.585358],[-84.510263,33.583948]]},{"type":"Point","coordinates":[-84.50905,33.585834]},{"type":"Point","coordinates":[-84.50873,33.586123]}]}},{"type":"Feature","properties":{"precinct_2024":"SC29B","block_geoid20":"131210105293035","internal_point_in_fragment":false,"allocated_cvap24":0,"nov2025_precinct_at_point":""},"geometry":{"type":"GeometryCollection","geometries":[{"type":"Polygon","coordinates":[[[-84.51355799999999,33.584846],[-84.514102,33.585074],[-84.51355793391862,33.584846043198816],[-84.51355799999999,33.584846]]]},{"type":"Polygon","coordinates":[[[-84.51463,33.585336999999996],[-84.514761,33.585409999999996],[-84.515042,33.58557],[-84.514102,33.585074],[-84.51463,33.585336999999996]]]},{"type":"Point","coordinates":[-84.515318,33.585741]}]}},{"type":"Feature","properties":{"precinct_2024":"UC01C","block_geoid20":"131210105293035","internal_point_in_fragment":false,"allocated_cvap24":0,"nov2025_precinct_at_point":""},"geometry":{"type":"MultiPolygon","coordinates":[[[[-84.515851,33.58683],[-84.51581999999999,33.58683],[-84.514637,33.58681],[-84.51592699999999,33.586824],[-84.515851,33.58683]]],[[[-84.51437299999999,33.58567],[-84.51311300000236,33.585137000001005],[-84.514656,33.585789],[-84.51437299999999,33.58567]]]]}},{"type":"Feature","properties":{"precinct_2024":"UC033","block_geoid20":"131210105312015","internal_point_in_fragment":true,"allocated_cvap24":2,"nov2025_precinct_at_point":"UC033"},"geometry":{"type":"Polygon","coordinates":[[[-84.508667,33.585429999999995],[-84.508455,33.585429],[-84.507383,33.585429],[-84.50738300000025,33.58542899998871],[-84.50738799999999,33.585203],[-84.50740999999998,33.58413500000055],[-84.50741,33.584135],[-84.507802,33.584139],[-84.50780999999999,33.584013],[-84.50783790095849,33.58346110543071],[-84.507853,33.583176],[-84.50831099999999,33.583351],[-84.50925,33.583662],[-84.510263,33.583948],[-84.509433,33.585358],[-84.50905,33.585834],[-84.50873,33.586123],[-84.508661,33.586074],[-84.508667,33.58543],[-84.508667,33.585429999999995]]]}},{"type":"Feature","properties":{"precinct_2024":"SC08L","block_geoid20":"131210105263013","internal_point_in_fragment":false,"allocated_cvap24":0,"nov2025_precinct_at_point":""},"geometry":{"type":"Polygon","coordinates":[[[-84.548799,33.598524999999995],[-84.54846599999999,33.597946],[-84.548323,33.597696],[-84.54882120924185,33.5985160001765],[-84.548799,33.598524999999995]]]}},{"type":"Feature","properties":{"precinct_2024":"UC01C","block_geoid20":"131210105293030","internal_point_in_fragment":true,"allocated_cvap24":0,"nov2025_precinct_at_point":"UC01C"},"geometry":{"type":"Polygon","coordinates":[[[-84.506816,33.591378999999996],[-84.50634099999999,33.591651],[-84.506333,33.591619],[-84.506306,33.591532],[-84.506243,33.591387],[-84.506196,33.591277999999996],[-84.506154,33.591195],[-84.50606499999999,33.591038999999995],[-84.50580599999999,33.590564],[-84.50574999999999,33.590488],[-84.505653,33.590326999999995],[-84.505578,33.590157999999995],[-84.505527,33.589983],[-84.50550779365079,33.58987352380953],[-84.50615557237715,33.589484856573705],[-84.50625,33.589569],[-84.506329,33.58963],[-84.506495,33.589745],[-84.506671,33.589849],[-84.506856,33.589940999999996],[-84.507143,33.590064999999996],[-84.50782,33.590342],[-84.508201,33.590511],[-84.508271,33.590544],[-84.506816,33.591378999999996]]]}},{"type":"Feature","properties":{"precinct_2024":"UC033","block_geoid20":"131210105293030","internal_point_in_fragment":false,"allocated_cvap24":0,"nov2025_precinct_at_point":""},"geometry":{"type":"Polygon","coordinates":[[[-84.506149,33.589479],[-84.50615025709558,33.589480120184184],[-84.50585394960558,33.589658236220906],[-84.506149,33.589479]]]}},{"type":"Feature","properties":{"precinct_2024":"UC01C","block_geoid20":"131210105291019","internal_point_in_fragment":true,"allocated_cvap24":0,"nov2025_precinct_at_point":"UC01C"},"geometry":{"type":"Polygon","coordinates":[[[-84.505881,33.591915],[-84.503751,33.593134],[-84.503295,33.59341],[-84.502854,33.593702],[-84.502479,33.593972],[-84.500804,33.595293],[-84.50043199999999,33.595549],[-84.500248,33.595649],[-84.49999,33.595788999999996],[-84.499822,33.595864],[-84.499302,33.594032],[-84.499296,33.594024],[-84.4991,33.593778],[-84.499067,33.593738],[-84.5038034049587,33.59089615702478],[-84.504384,33.590553],[-84.50495650980372,33.59020429411777],[-84.50550779365079,33.58987352380953],[-84.505527,33.589983],[-84.505578,33.590157999999995],[-84.505653,33.590326999999995],[-84.50574999999999,33.590488],[-84.50580599999999,33.590564],[-84.50606499999999,33.591038999999995],[-84.506154,33.591195],[-84.506196,33.591277999999996],[-84.506243,33.591387],[-84.506306,33.591532],[-84.506333,33.591619],[-84.50634099999999,33.591651],[-84.505881,33.591915]]]}},{"type":"Feature","properties":{"precinct_2024":"UC033","block_geoid20":"131210105291019","internal_point_in_fragment":false,"allocated_cvap24":0,"nov2025_precinct_at_point":""},"geometry":{"type":"Polygon","coordinates":[[[-84.499234,33.593627999999995],[-84.501682,33.59215],[-84.5032773996056,33.591207049159834],[-84.499067,33.593738],[-84.499234,33.593627999999995]]]}},{"type":"Feature","properties":{"precinct_2024":"RW22C","block_geoid20":"131210114392003","internal_point_in_fragment":false,"allocated_cvap24":0,"nov2025_precinct_at_point":""},"geometry":{"type":"Polygon","coordinates":[[[-84.273764,33.988771],[-84.273432,33.988554],[-84.273308,33.988457],[-84.27376540822073,33.98876899070946],[-84.273764,33.988771]]]}},{"type":"Feature","properties":{"precinct_2024":"RW22C","block_geoid20":"131210114241005","internal_point_in_fragment":false,"allocated_cvap24":0,"nov2025_precinct_at_point":""},"geometry":{"type":"Polygon","coordinates":[[[-84.273241,33.990389],[-84.27324127103611,33.99039384053569],[-84.273107,33.99039],[-84.273241,33.990389]]]}},{"type":"Feature","properties":{"precinct_2024":"RW22B","block_geoid20":"131210114241005","internal_point_in_fragment":true,"allocated_cvap24":0,"nov2025_precinct_at_point":"JC19"},"geometry":{"type":"Polygon","coordinates":[[[-84.273305,33.991532],[-84.27335099999999,33.99254],[-84.273354,33.992605999999995],[-84.27337419431053,33.99305604463488],[-84.273249,33.992998],[-84.273107,33.99039],[-84.27324127103611,33.99039384053569],[-84.273305,33.991532]]]}},{"type":"Feature","properties":{"precinct_2024":"UC033","block_geoid20":"131210105312009","internal_point_in_fragment":false,"allocated_cvap24":0,"nov2025_precinct_at_point":""},"geometry":{"type":"MultiPolygon","coordinates":[[[[-84.5050080000003,33.58927799999975],[-84.50539269556377,33.58895574569379],[-84.50540199999999,33.588963],[-84.5050080000003,33.58927799999975]]],[[[-84.50471399999999,33.589469],[-84.504425,33.589624],[-84.50412,33.589757],[-84.50500799999992,33.58927800000004],[-84.50471399999999,33.589469]]],[[[-84.50379,33.589872],[-84.503301,33.590007],[-84.50412,33.589757],[-84.50379,33.589872]]],[[[-84.50258,33.590184],[-84.502094,33.590303],[-84.49990199999999,33.59082],[-84.49956900000157,33.590897999999626],[-84.503301,33.590007],[-84.50258,33.590184]]]]}},{"type":"Feature","properties":{"precinct_2024":"SC21A","block_geoid20":"131210105402003","internal_point_in_fragment":false,"allocated_cvap24":0,"nov2025_precinct_at_point":""},"geometry":{"type":"Polygon","coordinates":[[[-84.551164,33.557282],[-84.549763,33.557877999999995],[-84.549734,33.55789],[-84.54968,33.557913],[-84.5496540000012,33.55792399999949],[-84.551518,33.557126],[-84.551164,33.557282]]]}},{"type":"Feature","properties":{"precinct_2024":"12E2","block_geoid20":"131219800001008","internal_point_in_fragment":true,"allocated_cvap24":0,"nov2025_precinct_at_point":"01S"},"geometry":{"type":"Polygon","coordinates":[[[-84.428527,33.653309],[-84.42851399999999,33.653658],[-84.42850159006207,33.654096708076096],[-84.4284735483871,33.654966],[-84.428242,33.654966],[-84.425862,33.654966],[-84.425849,33.654364],[-84.425827,33.654227],[-84.42578999999999,33.654111],[-84.425748,33.65403],[-84.425708,33.653953],[-84.425607,33.653822999999996],[-84.425468,33.653696],[-84.425322,33.653600000000004],[-84.425179,33.653532],[-84.425046,33.653486],[-84.42490699999999,33.653453999999996],[-84.424764,33.653437],[-84.423881,33.653436],[-84.423217,33.653436],[-84.423096,33.653436],[-84.421283,33.653439],[-84.420949,33.653574],[-84.42082599999999,33.653642],[-84.420605,33.653814],[-84.420495,33.653938],[-84.419516,33.655254],[-84.419223,33.655649],[-84.419201,33.655684],[-84.419245,33.652567],[-84.41922866957728,33.64876393273081],[-84.419229,33.648668],[-84.419228,33.64860800000114],[-84.419228,33.648608],[-84.42342699999898,33.648708999999975],[-84.42342699999999,33.648709],[-84.423427,33.648709],[-84.428527,33.648709],[-84.428527,33.649536999999995],[-84.428527,33.653309]]]}},{"type":"Feature","properties":{"precinct_2024":"SC05F","block_geoid20":"131210105361021","internal_point_in_fragment":true,"allocated_cvap24":0,"nov2025_precinct_at_point":"SC13"},"geometry":{"type":"Polygon","coordinates":[[[-84.60874199999999,33.606563],[-84.60864700000008,33.60641800000012],[-84.608647,33.606418],[-84.608746,33.606378],[-84.60883,33.606522999999996],[-84.60883,33.606523],[-84.60883000000014,33.60652300000024],[-84.60891099999999,33.606663],[-84.609996,33.608532],[-84.611144,33.610405],[-84.610824,33.610445],[-84.60874199999999,33.606563]]]}},{"type":"Feature","properties":{"precinct_2024":"SC05F","block_geoid20":"131210105362002","internal_point_in_fragment":true,"allocated_cvap24":2,"nov2025_precinct_at_point":"SC13"},"geometry":{"type":"Polygon","coordinates":[[[-84.609776,33.606463],[-84.609673,33.606173999999996],[-84.60883,33.606522999999996],[-84.608746,33.606378],[-84.607629,33.604425],[-84.60882199999999,33.60378500000001],[-84.609116,33.60461],[-84.60930299999875,33.60513299999651],[-84.609303,33.605133],[-84.610599,33.605097],[-84.611108,33.605878],[-84.609776,33.606463]]]}},{"type":"Feature","properties":{"precinct_2024":"SC08A","block_geoid20":"131210105263009","internal_point_in_fragment":false,"allocated_cvap24":0,"nov2025_precinct_at_point":""},"geometry":{"type":"MultiPolygon","coordinates":[[[[-84.556719,33.606415],[-84.5549140000023,33.606429999999975],[-84.556845,33.606408],[-84.556719,33.606415]]],[[[-84.55621699999999,33.607330999999995],[-84.55621699999999,33.607331],[-84.554881,33.607402],[-84.55621699999999,33.607330999999995]]]]}},{"type":"Feature","properties":{"precinct_2024":"SC07B","block_geoid20":"131210103152021","internal_point_in_fragment":false,"allocated_cvap24":0,"nov2025_precinct_at_point":""},"geometry":{"type":"MultiPolygon","coordinates":[[[[-84.5849449999999,33.625225999999856],[-84.584945,33.625226],[-84.58494499999999,33.625226],[-84.5849449999999,33.625225999999856]]],[[[-84.584778,33.624992999999996],[-84.584481,33.624562],[-84.58480344142103,33.62502342479216],[-84.584778,33.624992999999996]]]]}},{"type":"Feature","properties":{"precinct_2024":"UC01C","block_geoid20":"131210105291013","internal_point_in_fragment":false,"allocated_cvap24":0,"nov2025_precinct_at_point":""},"geometry":{"type":"GeometryCollection","geometries":[{"type":"Polygon","coordinates":[[[-84.499333,33.597395999999996],[-84.500034,33.597405],[-84.498352,33.597386],[-84.499333,33.597395999999996]]]},{"type":"Polygon","coordinates":[[[-84.50004,33.597574],[-84.500046,33.597785],[-84.500059,33.598211],[-84.500034,33.597405],[-84.50004,33.597574]]]},{"type":"LineString","coordinates":[[-84.498175,33.597423],[-84.498352,33.597386]]},{"type":"Point","coordinates":[-84.50206,33.596664]},{"type":"Point","coordinates":[-84.502056,33.5982]}]}},{"type":"Feature","properties":{"precinct_2024":"UC01C","block_geoid20":"131210105293028","internal_point_in_fragment":true,"allocated_cvap24":19,"nov2025_precinct_at_point":"UC01C"},"geometry":{"type":"Polygon","coordinates":[[[-84.50994299999999,33.59171],[-84.509693,33.591539],[-84.50944,33.591343],[-84.50890299999999,33.590927],[-84.508738,33.59081],[-84.508566,33.590702],[-84.508387,33.590602],[-84.508271,33.590544],[-84.508986,33.590135],[-84.50925,33.58997],[-84.509508,33.58978],[-84.509756,33.589563],[-84.51062499999999,33.588654],[-84.510791,33.588499],[-84.510865,33.588443999999996],[-84.511088,33.588277999999995],[-84.511161,33.588237],[-84.511231,33.588369],[-84.511764,33.589309],[-84.511843,33.589486],[-84.511994,33.589815],[-84.513173,33.589811],[-84.513385,33.58981],[-84.513364,33.59159],[-84.515884,33.591594],[-84.51588199999999,33.591727],[-84.50996701673911,33.59172490694152],[-84.50994299999999,33.59171]]]}},{"type":"Feature","properties":{"precinct_2024":"UC01C","block_geoid20":"131210105293033","internal_point_in_fragment":true,"allocated_cvap24":0,"nov2025_precinct_at_point":"UC01C"},"geometry":{"type":"Polygon","coordinates":[[[-84.513404,33.587648],[-84.51341024390221,33.58744000000741],[-84.51342415617133,33.58699182619503],[-84.513431,33.586788999999996],[-84.513441,33.58647],[-84.513442,33.586417],[-84.512001,33.585865],[-84.513113,33.585137],[-84.51311300000236,33.585137000001005],[-84.51437299999999,33.58567],[-84.514656,33.585789],[-84.514637,33.58681],[-84.51581999999999,33.58683],[-84.515851,33.58683],[-84.51592699999999,33.586824],[-84.51592699999999,33.586824000001776],[-84.515919,33.587826],[-84.5134,33.58777],[-84.513404,33.587648]]]}},{"type":"Feature","properties":{"precinct_2024":"12E2","block_geoid20":"131210108013027","internal_point_in_fragment":false,"allocated_cvap24":0,"nov2025_precinct_at_point":""},"geometry":{"type":"GeometryCollection","geometries":[{"type":"Polygon","coordinates":[[[-84.42698,33.657607999999996],[-84.428552,33.657605],[-84.42698,33.657608],[-84.42698,33.657607999999996]]]},{"type":"Polygon","coordinates":[[[-84.42854899999999,33.657486],[-84.42854901305405,33.65748600007354],[-84.428552,33.657605],[-84.42854899999999,33.657486]]]},{"type":"Point","coordinates":[-84.427007,33.65896]}]}},{"type":"Feature","properties":{"precinct_2024":"12E2","block_geoid20":"131210108013029","internal_point_in_fragment":true,"allocated_cvap24":0,"nov2025_precinct_at_point":"01S"},"geometry":{"type":"Polygon","coordinates":[[[-84.42309399999999,33.658158],[-84.423071,33.658318],[-84.42288352399707,33.65889828286619],[-84.420593,33.658864],[-84.42096642556396,33.657782081221015],[-84.42196299999999,33.657796999999995],[-84.42309499999999,33.657815],[-84.42309499999999,33.657939],[-84.42309399999999,33.658158]]]}},{"type":"Feature","properties":{"precinct_2024":"AP01E","block_geoid20":"131210114341003","internal_point_in_fragment":true,"allocated_cvap24":0,"nov2025_precinct_at_point":"AP01D"},"geometry":{"type":"Polygon","coordinates":[[[-84.299621,34.038166],[-84.299294,34.038468],[-84.299213,34.038607999999996],[-84.299213,34.038608],[-84.299213,34.038878],[-84.297967,34.038877],[-84.297962,34.037605],[-84.299795,34.037654],[-84.29977099999999,34.037897],[-84.299621,34.038166]]]}},{"type":"Feature","properties":{"precinct_2024":"UC01C","block_geoid20":"131210105291005","internal_point_in_fragment":false,"allocated_cvap24":0,"nov2025_precinct_at_point":""},"geometry":{"type":"Polygon","coordinates":[[[-84.497873,33.596602],[-84.49802,33.597],[-84.49817499999969,33.597422999999175],[-84.49786037378911,33.596602837452764],[-84.497873,33.596602]]]}},{"type":"Feature","properties":{"precinct_2024":"UC01C","block_geoid20":"131210105291021","internal_point_in_fragment":true,"allocated_cvap24":0,"nov2025_precinct_at_point":"UC01C"},"geometry":{"type":"Polygon","coordinates":[[[-84.497828,33.596478],[-84.497379,33.595348],[-84.497273,33.594938],[-84.49829,33.594252],[-84.49834899999999,33.594324],[-84.49851299999612,33.59452299999529],[-84.498513,33.594523],[-84.498965,33.596018],[-84.499043,33.596133],[-84.498998,33.596146],[-84.497828,33.596478]]]}},{"type":"Feature","properties":{"precinct_2024":"08F2","block_geoid20":"131210089031000","internal_point_in_fragment":false,"allocated_cvap24":0,"nov2025_precinct_at_point":""},"geometry":{"type":"Polygon","coordinates":[[[-84.45587599999999,33.82577],[-84.45587599999895,33.825769999999366],[-84.45587599999999,33.82576999999999],[-84.45587599999999,33.82577]]]}},{"type":"Feature","properties":{"precinct_2024":"08F2","block_geoid20":"131210089062004","internal_point_in_fragment":false,"allocated_cvap24":0,"nov2025_precinct_at_point":""},"geometry":{"type":"GeometryCollection","geometries":[{"type":"Polygon","coordinates":[[[-84.454297,33.825283999999996],[-84.453884,33.825509],[-84.4544959999991,33.8251730000005],[-84.454297,33.825283999999996]]]},{"type":"Polygon","coordinates":[[[-84.452899,33.825675],[-84.45279699999999,33.825679],[-84.45269800000037,33.825683999999974],[-84.453418,33.825634],[-84.452899,33.825675]]]},{"type":"Polygon","coordinates":[[[-84.452561,33.825616],[-84.452386,33.825515],[-84.45269799999984,33.82568399999992],[-84.452561,33.825616]]]},{"type":"Polygon","coordinates":[[[-84.45178,33.825647],[-84.451162,33.82582],[-84.452174,33.825511],[-84.45178,33.825647]]]},{"type":"Polygon","coordinates":[[[-84.45046099999999,33.826063],[-84.450244,33.826087],[-84.45071899999995,33.826004000000005],[-84.45046099999999,33.826063]]]},{"type":"Polygon","coordinates":[[[-84.450099,33.826088999999996],[-84.449976,33.826052],[-84.450244,33.826087],[-84.450099,33.826088999999996]]]},{"type":"LineString","coordinates":[[-84.453884,33.825509],[-84.453418,33.825634]]},{"type":"Point","coordinates":[-84.454638,33.825027]}]}}]}